{"restaurants":[{"name":"Julien Binz","road":"7 Rue des Cigognes","zipcode":"68770","city":"Ammerschwihr","address":"7 Rue des Cigognes 68770 Ammerschwihr","chef":"Le Chef Julien Binz","url":"https://restaurant.michelin.fr/yi79hbnh/julien-binz-ammerschwihr"},{"name":"Le Moulin de la Gorce","road":"D17","zipcode":"87800","city":"La Roche-l'Abeille","address":"D17 87800 La Roche-l'Abeille","chef":"Pierre Bertranet","url":"https://restaurant.michelin.fr/2awwemv/le-moulin-de-la-gorce-la-roche-labeille"},{"name":"Le Baudelaire","road":"6-8 rue Duphot","zipcode":"75001","city":"Paris 01","address":"6-8 rue Duphot 75001 Paris 01","chef":"Guillaume Goupil","url":"https://restaurant.michelin.fr/2fdc0eg/le-baudelaire-paris-01"},{"name":"Le Clos des Sens","road":"13 r. J. -Mermoz","zipcode":"74940","city":"Annecy","address":"13 r. J. -Mermoz 74940 Annecy","chef":"Laurent Petit","url":"https://restaurant.michelin.fr/28pf13h/le-clos-des-sens-annecy-le-vieux"},{"name":"Le Prince Noir - Vivien Durand","road":"1 rue du Prince Noir","zipcode":"33310","city":"Lormont","address":"1 rue du Prince Noir 33310 Lormont","chef":"Durand Vivien","url":"https://restaurant.michelin.fr/4g00u3j8/le-prince-noir-vivien-durand-lormont"},{"name":"Domaine de Clairefontaine","road":"chemin des Fontanettes","zipcode":"38121","city":"Chonas-l'Amballan","address":"chemin des Fontanettes 38121 Chonas-l'Amballan","chef":"Philippe Girardon","url":"https://restaurant.michelin.fr/2b8j4np/domaine-de-clairefontaine-chonas-lamballan"},{"name":"La Coopérative","road":"2A Route de Caladroy","zipcode":"66720","city":"Bélesta","address":"2A Route de Caladroy 66720 Bélesta","chef":"LEMAL Laurent","url":"https://restaurant.michelin.fr/3w3putu/la-cooperative-belesta"},{"name":"Relais de la Poste","road":"21 rue du Gén. -de-Gaulle","zipcode":"67610","city":"LA-WANTZENAU","address":"21 rue du Gén. -de-Gaulle 67610 LA-WANTZENAU","chef":"Stephan Bernhard","url":"https://restaurant.michelin.fr/2b1jv34/relais-de-la-poste-la-wantzenau"},{"name":"L'Ekrin by Laurent Azoulay","road":"Route de la Montée","zipcode":"73550","city":"MERIBEL","address":"Route de la Montée 73550 MERIBEL","chef":"Laurent AZOULAY","url":"https://restaurant.michelin.fr/9isyik39/lekrin-laurent-azoulay-meribel-mottaret"},{"name":"La Licorne Royale","road":"27 Place Isaac Benserade","zipcode":"27480","city":"Lyons-la-Forêt","address":"27 Place Isaac Benserade 27480 Lyons-la-Forêt","chef":"Christophe POIRIER","url":"https://restaurant.michelin.fr/2ehwc2a/la-licorne-royale-lyons-la-foret"},{"name":"Anne de Bretagne","road":"163, Boulevard de la Tara","zipcode":"44770","city":"La Plaine-sur-Mer","address":"163, Boulevard de la Tara 44770 La Plaine-sur-Mer","chef":"Mathieu Guibert","url":"https://restaurant.michelin.fr/2ciults/anne-de-bretagne-la-plaine-sur-mer"},{"name":"Les Morainières","road":"route de Marétel","zipcode":"73170","city":"Jongieux","address":"route de Marétel 73170 Jongieux","chef":"Michaël Arnoult","url":"https://restaurant.michelin.fr/2dd2ann/les-morainieres-jongieux"},{"name":"Ô Flaveurs","road":"Château de Chilly","zipcode":"74140","city":"Douvaine","address":"Château de Chilly 74140 Douvaine","chef":"Jérôme Mamet","url":"https://restaurant.michelin.fr/2dr6qsw/o-flaveurs-douvaine"},{"name":"Alléno Paris au Pavillon Ledoyen","road":"8 avenue Dutuit","zipcode":"75008","city":"Paris","address":"8 avenue Dutuit 75008 Paris","chef":"Yannick Alléno","url":"https://restaurant.michelin.fr/2ab5qlx/alleno-paris-au-pavillon-ledoyen-paris-08"},{"name":"Faventia","road":"3100 route de Bagnols-en-Forêt","zipcode":"83440","city":"Tourrettes","address":"3100 route de Bagnols-en-Forêt 83440 Tourrettes","chef":"Philippe Jourdin","url":"https://restaurant.michelin.fr/2dix4nq137/faventia-tourrettes"},{"name":"Initial","road":"24 Rue Saint-Manvieu","zipcode":"14000","city":"Caen","address":"24 Rue Saint-Manvieu 14000 Caen","chef":"Yohann Lemonnier","url":"https://restaurant.michelin.fr/sd2y8ik/initial-caen"},{"name":"Stéphane Derbord","road":"10 Place du Président Wilson","zipcode":"21000","city":"Dijon","address":"10 Place du Président Wilson 21000 Dijon","chef":"Stéphane Derbord","url":"https://restaurant.michelin.fr/29dkmez/stephane-derbord-dijon"},{"name":"Auberge des Templiers","road":"D2007","zipcode":"45290","city":"Les Bézards","address":"D2007 45290 Les Bézards","chef":"Yoshihiko MIURA","url":"https://restaurant.michelin.fr/2bicgcl/auberge-des-templiers-les-bezards"},{"name":"Raphaël Vionnet","road":"43 Avenue du Général Leclerc","zipcode":"74200","city":"Thonon-les-Bains","address":"43 Avenue du Général Leclerc 74200 Thonon-les-Bains","chef":"Raphaël Vionnet","url":"https://restaurant.michelin.fr/6pyhps6h/raphael-vionnet-thonon-les-bains"},{"name":"Le Carrousel","road":"14 rue du Pont de Morge","zipcode":"63350","city":"MARINGUES","address":"14 rue du Pont de Morge 63350 MARINGUES","chef":"Olivier Said","url":"https://restaurant.michelin.fr/2dwt9zi/le-carrousel-maringues"},{"name":"Le M","road":"22 r. du Cdt-Drogou","zipcode":"29200","city":"Brest","address":"22 r. du Cdt-Drogou 29200 Brest","chef":"Philippe Le Bigot","url":"https://restaurant.michelin.fr/2epv4gf/le-m-brest"},{"name":"L'Auberge de la Pomme","road":"44 rue de l' eure","zipcode":"27340","city":"Les Damps","address":"44 rue de l' eure 27340 Les Damps","chef":"William Boquelet","url":"https://restaurant.michelin.fr/2al6a9i/lauberge-de-la-pomme-les-damps"},{"name":"La Scène","road":"33 Avenue George V","zipcode":"75008","city":"Paris","address":"33 Avenue George V 75008 Paris","chef":"Stéphanie Le Quellec","url":"https://restaurant.michelin.fr/1ore4aj2/la-scene-paris-08"},{"name":"Le Clarence","road":"31 Avenue Franklin Delano Roosevelt","zipcode":"75008","city":"Paris 08","address":"31 Avenue Franklin Delano Roosevelt 75008 Paris 08","chef":"Christophe Pelé","url":"https://restaurant.michelin.fr/sntd30zx/le-clarence-paris-08"},{"name":"Les Bas-Rupts","road":"181 rte de la Bresse","zipcode":"88400","city":"Bas-Rupts","address":"181 rte de la Bresse 88400 Bas-Rupts","chef":"Michel Philippe","url":"https://restaurant.michelin.fr/29jqk2d/les-bas-rupts-bas-rupts"},{"name":"Le Bouche à Oreille","road":"11 r. de la Chapelle","zipcode":"91150","city":"Boutervilliers","address":"11 r. de la Chapelle 91150 Boutervilliers","chef":"Aymeric Dreux","url":"https://restaurant.michelin.fr/s5edw9g/le-bouche-oreille-boutervilliers"},{"name":"La Table d'Hôtes - Le Quatrième Mur","road":"2 pl. de la Comédie","zipcode":"33000","city":"Bordeaux","address":"2 pl. de la Comédie 33000 Bordeaux","chef":"Philippe Etchebest","url":"https://restaurant.michelin.fr/3623606/la-table-dhotes-le-quatrieme-mur-bordeaux"},{"name":"J.-M. Pérochon","road":"63 avenue de la Grand'Roche","zipcode":"85470","city":"Brétignolles-sur-Mer","address":"63 avenue de la Grand'Roche 85470 Brétignolles-sur-Mer","chef":"Jean-Marc Pérochon","url":"https://restaurant.michelin.fr/2dyiess/j-m-perochon-bretignolles-sur-mer"},{"name":"L'Atelier d'Edmond","road":"au Fornet","zipcode":"73150","city":"Val-d'Isère","address":"au Fornet 73150 Val-d'Isère","chef":"Benoît Vidal","url":"https://restaurant.michelin.fr/2e1ykis/latelier-dedmond-val-disere"},{"name":"Maison Clovis","road":"19 bd Brotteaux","zipcode":"69006","city":"Lyon","address":"19 bd Brotteaux 69006 Lyon","chef":"Clovis Khoury","url":"https://restaurant.michelin.fr/2eqhwui/maison-clovis-lyon-06"},{"name":"La Marelle","road":"1593 av. de Lyon","zipcode":"01960","city":"Péronnas","address":"1593 av. de Lyon 01960 Péronnas","chef":"Didier Goiffon","url":"https://restaurant.michelin.fr/28zbkc6/la-marelle-peronnas"},{"name":"Aigue Marine","road":"5 r. M. -Berthelot","zipcode":"22220","city":"Tréguier","address":"5 r. M. -Berthelot 22220 Tréguier","chef":"LAISNEY Stanislas","url":"https://restaurant.michelin.fr/2cz1lgu/aigue-marine-treguier"},{"name":"Le Refuge des Gourmets","road":"90 route des Framboises","zipcode":"74140","city":"Machilly","address":"90 route des Framboises 74140 Machilly","chef":"Jean-Marie et Hubert Chanove","url":"https://restaurant.michelin.fr/29uv8a7/le-refuge-des-gourmets-machilly"},{"name":"La Dame de Pic","road":"20 Rue du Louvre","zipcode":"75001","city":"Paris 01","address":"20 Rue du Louvre 75001 Paris 01","chef":"Anne-Sophie Pic","url":"https://restaurant.michelin.fr/jgnpf8y/la-dame-de-pic-paris-01"},{"name":"La Bonne Étape","road":"chemin du lac","zipcode":"04160","city":"Château-Arnoux","address":"chemin du lac 04160 Château-Arnoux","chef":"Jany Gleize","url":"https://restaurant.michelin.fr/2bp5jf6/la-bonne-etape-chateau-arnoux"},{"name":"L'Essentiel","road":"29 Rue Mirabeau","zipcode":"14800","city":"DEAUVILLE","address":"29 Rue Mirabeau 14800 DEAUVILLE","chef":"Mi-Ra et Charles Thuillant","url":"https://restaurant.michelin.fr/40jnqvq/lessentiel-deauville"},{"name":"Le Pressoir","road":"7 r. de l'Hôpital","zipcode":"56890","city":"Saint-Avé","address":"7 r. de l'Hôpital 56890 Saint-Avé","chef":"Vincent David","url":"https://restaurant.michelin.fr/2b6sa1u/le-pressoir-saint-ave"},{"name":"Il Carpaccio","road":"37 avenue Hoche","zipcode":"75008","city":"Paris 08","address":"37 avenue Hoche 75008 Paris 08","chef":"","url":"https://restaurant.michelin.fr/2fdi6av208/il-carpaccio-paris-08"},{"name":"Auberge du Vieux Puits","road":"5 Avenue Saint-Victor","zipcode":"11360","city":"Fontjoncouse","address":"5 Avenue Saint-Victor 11360 Fontjoncouse","chef":"Gilles Goujon","url":"https://restaurant.michelin.fr/29ib1yg/auberge-du-vieux-puits-fontjoncouse"},{"name":"Yoann Conte","road":"13 Vieille-Route-des-Pensières","zipcode":"74290","city":"Veyrier-du-Lac","address":"13 Vieille-Route-des-Pensières 74290 Veyrier-du-Lac","chef":"Yoann CONTE","url":"https://restaurant.michelin.fr/2fcm39b/yoann-conte-veyrier-du-lac"},{"name":"La Table de la Ferme","road":"Vallée de l'Ortolo","zipcode":"20100","city":"Sartène","address":"Vallée de l'Ortolo 20100 Sartène","chef":"","url":"https://restaurant.michelin.fr/3623651/la-table-de-la-ferme-sartene"},{"name":"Pierre Orsi","road":"Place Kléber","zipcode":"69006","city":"Lyon 06","address":"Place Kléber 69006 Lyon 06","chef":"Pierre Orsi","url":"https://restaurant.michelin.fr/29te7ik/pierre-orsi-lyon-06"},{"name":"Jean Sulpice","road":"303 rte du Port","zipcode":"74290","city":"Talloires","address":"303 rte du Port 74290 Talloires","chef":"","url":"https://restaurant.michelin.fr/3636676/jean-sulpice-talloires-montmin"},{"name":"Les Fresques","road":"D18","zipcode":"24240","city":"Monestier","address":"D18 24240 Monestier","chef":"Didier Casaguana","url":"https://restaurant.michelin.fr/2ax5yy8/les-fresques-monestier"},{"name":"L'Oustau de Baumanière","road":"Village des Baux-de-Provence","zipcode":"13520","city":"Les Baux-de-Provence","address":"Village des Baux-de-Provence 13520 Les Baux-de-Provence","chef":"Jean-André Charial","url":"https://restaurant.michelin.fr/28tn79w/loustau-de-baumaniere-les-baux-de-provence"},{"name":"Le Brittany","road":"bd Ste-Barbe","zipcode":"29681","city":"Roscoff","address":"bd Ste-Barbe 29681 Roscoff","chef":"Loic Le Bail","url":"https://restaurant.michelin.fr/2cnbixn/le-brittany-roscoff"},{"name":"Aux Pesked","road":"59 Rue du Légué","zipcode":"22000","city":"Saint-Brieuc","address":"59 Rue du Légué 22000 Saint-Brieuc","chef":"Mathieu Aumont","url":"https://restaurant.michelin.fr/2aru9pt/aux-pesked-saint-brieuc"},{"name":"L'Aparté","road":"21 Rue de l’Europe","zipcode":"31850","city":"MONTRABE","address":"21 Rue de l’Europe 31850 MONTRABE","chef":"le Chef Jérémy Morin","url":"https://restaurant.michelin.fr/xay649ax/laparte-montrabe"},{"name":"Le Pavillon des Boulevards","road":"120 r. Croix-de-Seguey","zipcode":"33000","city":"Bordeaux","address":"120 r. Croix-de-Seguey 33000 Bordeaux","chef":"Thomas Morel","url":"https://restaurant.michelin.fr/28y19tl/le-pavillon-des-boulevards-bordeaux"},{"name":"Bruno","road":"2350 route des Arcs, Campagne Mariette","zipcode":"83510","city":"Lorgues","address":"2350 route des Arcs, Campagne Mariette 83510 Lorgues","chef":"Benjamin Bruno","url":"https://restaurant.michelin.fr/29s5co3/bruno-lorgues"},{"name":"Assiette Champenoise","road":"40 av. Paul Vaillant-Couturier","zipcode":"51430","city":"Tinqueux","address":"40 av. Paul Vaillant-Couturier 51430 Tinqueux","chef":"Arnaud Lallement","url":"https://restaurant.michelin.fr/2cliodi/assiette-champenoise-tinqueux"},{"name":"Le Quincangrogne","road":"7 Rue de l'Abreuvoir","zipcode":"77400","city":"Dampmart","address":"7 Rue de l'Abreuvoir 77400 Dampmart","chef":"Franck Charpentier","url":"https://restaurant.michelin.fr/u1pjp7ux/le-quincangrogne-dampmart"},{"name":"Têtedoie","road":"4 rue du Professeur Pierre MARION","zipcode":"69005","city":"Lyon 05","address":"4 rue du Professeur Pierre MARION 69005 Lyon 05","chef":"Christian Têtedoie","url":"https://restaurant.michelin.fr/29tfnmd288/tetedoie-lyon-05"},{"name":"Château de Pray","road":"Rue du Cèdre","zipcode":"37400","city":"Amboise","address":"Rue du Cèdre 37400 Amboise","chef":"Arnaud Philippon","url":"https://restaurant.michelin.fr/2bcbfo0/chateau-de-pray-amboise"},{"name":"Les Bacchanales","road":"247 avenue de Provence","zipcode":"06140","city":"VENCE","address":"247 avenue de Provence 06140 VENCE","chef":"Christophe Dufau","url":"https://restaurant.michelin.fr/2en7eas/les-bacchanales-vence"},{"name":"Restaurant du Château","road":"15 avenue des Reynats","zipcode":"24650","city":"Chancelade","address":"15 avenue des Reynats 24650 Chancelade","chef":"HABERLAND Cyril","url":"https://restaurant.michelin.fr/2chv2z6/restaurant-du-chateau-chancelade"},{"name":"La Table de Patrick Raingeard","road":"1312 av. Raymond-Poincaré","zipcode":"06360","city":"EZE-BORD-DE-MER","address":"1312 av. Raymond-Poincaré 06360 EZE-BORD-DE-MER","chef":"Patrick RAINGEARD","url":"https://restaurant.michelin.fr/2e2m5rq/la-table-de-patrick-raingeard-eze-bord-de-mer"},{"name":"Mirazur","road":"30, Avenue Aristide Briand","zipcode":"06500","city":"Menton","address":"30, Avenue Aristide Briand 06500 Menton","chef":"Mauro Colagreco","url":"https://restaurant.michelin.fr/2d440f7/mirazur-menton"},{"name":"Le Hittau","road":"1 rue du Nouaou","zipcode":"40230","city":"SAINT-VINCENT-DE-TYROSSE","address":"1 rue du Nouaou 40230 SAINT-VINCENT-DE-TYROSSE","chef":"Yannick Duc","url":"https://restaurant.michelin.fr/2d9288s/le-hittau-saint-vincent-de-tyrosse"},{"name":"Dominique Bouchet","road":"11 Rue Treilhard","zipcode":"75008","city":"Paris","address":"11 Rue Treilhard 75008 Paris","chef":"Dominique Bouchet","url":"https://restaurant.michelin.fr/2doe0bh/dominique-bouchet-paris-08"},{"name":"Domaine d'Auriac","road":"Route de Saint-Hilaire","zipcode":"11000","city":"Carcassonne","address":"Route de Saint-Hilaire 11000 Carcassonne","chef":"Philippe Deschamps","url":"https://restaurant.michelin.fr/2bmf006/domaine-dauriac-carcassonne"},{"name":"Le Fanal","road":"17 Avenue du Fontaulé","zipcode":"66650","city":"Banyuls-sur-Mer","address":"17 Avenue du Fontaulé 66650 Banyuls-sur-Mer","chef":"Pascal Borrell","url":"https://restaurant.michelin.fr/yw26sgs/le-fanal-banyuls-sur-mer"},{"name":"G.a. au Manoir de Rétival","road":"Corniche de Rétival","zipcode":"76490","city":"Caudebec-en-Caux","address":"Corniche de Rétival 76490 Caudebec-en-Caux","chef":"David Goerne","url":"https://restaurant.michelin.fr/9rnckmj/ga-au-manoir-de-retival-caudebec-en-caux"},{"name":"Le Relais des Moines","road":"route de Ste-Roseline","zipcode":"83460","city":"Les Arcs","address":"route de Ste-Roseline 83460 Les Arcs","chef":"Sébastien Sanjou","url":"https://restaurant.michelin.fr/28qae64/le-relais-des-moines-les-arcs"},{"name":"Auberge Tiegezh","road":"7 Place de la Gare","zipcode":"56380","city":"Guer","address":"7 Place de la Gare 56380 Guer","chef":"Baptiste Denieul","url":"https://restaurant.michelin.fr/34milgg2/auberge-tiegezh-guer"},{"name":"Le Taillevent","road":"15 Rue Lamennais","zipcode":"75008","city":"Paris","address":"15 Rue Lamennais 75008 Paris","chef":"Alain Solivérès","url":"https://restaurant.michelin.fr/2ab9sgk/le-taillevent-paris-08"},{"name":"Les Hautes Roches","road":"86 quai de Loire","zipcode":"37210","city":"Rochecorbon","address":"86 quai de Loire 37210 Rochecorbon","chef":"Didier Edon","url":"https://restaurant.michelin.fr/2cyg6yb/les-hautes-roches-rochecorbon"},{"name":"Gill","road":"9 quai de la Bourse","zipcode":"76000","city":"Rouen","address":"9 quai de la Bourse 76000 Rouen","chef":"Gilles Tournadre","url":"https://restaurant.michelin.fr/2aqe7bm/gill-rouen"},{"name":"Le Coquillage","road":"Lieu-dit Le Buot","zipcode":"35350","city":"Saint-Méloir-des-Ondes","address":"Lieu-dit Le Buot 35350 Saint-Méloir-des-Ondes","chef":"Hugo Roellinger","url":"https://restaurant.michelin.fr/291q1xd/le-coquillage-saint-meloir-des-ondes"},{"name":"Le Jardin de Benjamin","road":"Route de Salernes","zipcode":"83510","city":"Lorgues","address":"Route de Salernes 83510 Lorgues","chef":"Benjamin Collombat","url":"https://restaurant.michelin.fr/xhr5bt96/le-jardin-de-benjamin-lorgues"},{"name":"La Rotonde","road":"200 avenue du Casino","zipcode":"69890","city":"LA-TOUR-DE-SALVAGNY","address":"200 avenue du Casino 69890 LA-TOUR-DE-SALVAGNY","chef":"Jean-François MALLE","url":"https://restaurant.michelin.fr/29uqy46/la-rotonde-la-tour-de-salvagny"},{"name":"Hostellerie de l'Abbaye de la Celle","road":"10 Place Général de Gaulle","zipcode":"83170","city":"La Celle","address":"10 Place Général de Gaulle 83170 La Celle","chef":"Nicolas Pierantoni","url":"https://restaurant.michelin.fr/2bn8o1t/hostellerie-de-labbaye-de-la-celle-la-celle"},{"name":"Le Magasin aux Vivres","road":"5 Avenue Ney","zipcode":"57000","city":"Metz","address":"5 Avenue Ney 57000 Metz","chef":"Christophe Dufossé","url":"https://restaurant.michelin.fr/2dse7wh/le-magasin-aux-vivres-metz"},{"name":"Domaine de Rochevilaine","road":"à la Pointe de Pen Lan","zipcode":"56190","city":"Billiers","address":"à la Pointe de Pen Lan 56190 Billiers","chef":"Maxime Nouail","url":"https://restaurant.michelin.fr/2bij0t1/domaine-de-rochevilaine-billiers"},{"name":"La Villa Madie","road":"av. du Revestel","zipcode":"13260","city":"Cassis","address":"av. du Revestel 13260 Cassis","chef":"Dimitri Droisneau","url":"https://restaurant.michelin.fr/2eb50c1n/la-villa-madie-cassis"},{"name":"La Gouesnière","road":"1 Le Limonay","zipcode":"35350","city":"Saint-Méloir-des-Ondes","address":"1 Le Limonay 35350 Saint-Méloir-des-Ondes","chef":"Valade Olivier","url":"https://restaurant.michelin.fr/2byuiv7/la-gouesniere-saint-meloir-des-ondes"},{"name":"Villa Archange","road":"Rue de l'Ouest","zipcode":"06110","city":"Le Cannet","address":"Rue de l'Ouest 06110 Le Cannet","chef":"Bruno Oger","url":"https://restaurant.michelin.fr/2f4ok2n/villa-archange-le-cannet"},{"name":"Shang Palace","road":"10 Avenue d'Iéna","zipcode":"75016","city":"Paris 16","address":"10 Avenue d'Iéna 75016 Paris 16","chef":"Samuel Lee","url":"https://restaurant.michelin.fr/2fcezsf205/shang-palace-paris-16"},{"name":"Carré des Feuillants","road":"14 rue de Castiglione","zipcode":"75001","city":"Paris 01","address":"14 rue de Castiglione 75001 Paris 01","chef":"Alain Dutournier","url":"https://restaurant.michelin.fr/2a7gjv9/carre-des-feuillants-paris-01"},{"name":"1912","road":"bd de la Cahotte","zipcode":"14360","city":"Trouville-sur-Mer","address":"bd de la Cahotte 14360 Trouville-sur-Mer","chef":"Le chef Johan THYRIOT","url":"https://restaurant.michelin.fr/cns0apa3/1912-trouville-sur-mer"},{"name":"Frédéric Simonin","road":"25 rue Bayen","zipcode":"75017","city":"Paris","address":"25 rue Bayen 75017 Paris","chef":"FREDERIC SIMONIN","url":"https://restaurant.michelin.fr/2f8857v/frederic-simonin-paris-17"},{"name":"La Maison de Bournissac","road":"montée d'Eyragues","zipcode":"13550","city":"Les Paluds-des-Noves","address":"montée d'Eyragues 13550 Les Paluds-des-Noves","chef":"Christian Peyre","url":"https://restaurant.michelin.fr/2csipcf/la-maison-de-bournissac-noves"},{"name":"Château de Sully","road":"D6","zipcode":"14400","city":"Sully","address":"D6 14400 Sully","chef":"NIcolas FAGES","url":"https://restaurant.michelin.fr/2bgynqb/chateau-de-sully-sully"},{"name":"Domaine des Hauts de Loire","road":"79 rue Gilbert Navard","zipcode":"41150","city":"Onzain","address":"79 rue Gilbert Navard 41150 Onzain","chef":"Rémy Giraud","url":"https://restaurant.michelin.fr/2cedaza/domaine-des-hauts-de-loire-onzain"},{"name":"L'Amphitryon","road":"127 r. du Col. -Müller","zipcode":"56100","city":"Lorient","address":"127 r. du Col. -Müller 56100 Lorient","chef":"Olivier Beurné","url":"https://restaurant.michelin.fr/29saut6/lamphitryon-lorient"},{"name":"La Grande Cascade","road":"Carrefour de Longchamp","zipcode":"75016","city":"Paris","address":"Carrefour de Longchamp 75016 Paris","chef":"Frédéric Robert","url":"https://restaurant.michelin.fr/2af5lql/la-grande-cascade-paris-16"},{"name":"MaSa","road":"112 avenue Victor-Hugo","zipcode":"92100","city":"Boulogne-Billancourt","address":"112 avenue Victor-Hugo 92100 Boulogne-Billancourt","chef":"Hervé Rodriguez","url":"https://restaurant.michelin.fr/2enx3bmn/masa-boulogne-billancourt"},{"name":"La Barbacane","road":"Place Auguste-Pierre-Pont","zipcode":"11000","city":"Carcassonne","address":"Place Auguste-Pierre-Pont 11000 Carcassonne","chef":"RYON Jérôme","url":"https://restaurant.michelin.fr/292xja3/la-barbacane-carcassonne"},{"name":"Relais de la Poste","road":"24 avenue de Maremne","zipcode":"40140","city":"Magescq","address":"24 avenue de Maremne 40140 Magescq","chef":"Jean Coussau","url":"https://restaurant.michelin.fr/2c6dfrz/relais-de-la-poste-magescq"},{"name":"Le Pré du Moulin","road":"rte de Ste-Cécile-les-Vignes","zipcode":"84830","city":"Sérignan-du-Comtat","address":"rte de Ste-Cécile-les-Vignes 84830 Sérignan-du-Comtat","chef":"Caroline et Pascal Alonso","url":"https://restaurant.michelin.fr/2a6bp6b/le-pre-du-moulin-serignan-du-comtat"},{"name":"Au Trou Gascon","road":"40 r. Taine","zipcode":"75012","city":"Paris 12","address":"40 r. Taine 75012 Paris 12","chef":"Clément THOUVENOT","url":"https://restaurant.michelin.fr/2acpe43/au-trou-gascon-paris-12"},{"name":"Alain Llorca","road":"350 Route de St-Paul","zipcode":"06480","city":"La Colle-sur-Loup","address":"350 Route de St-Paul 06480 La Colle-sur-Loup","chef":"LLORCA ALAIN","url":"https://restaurant.michelin.fr/2e4vi29/alain-llorca-la-colle-sur-loup"},{"name":"Flaveur","road":"25 Rue Gubernatis","zipcode":"06000","city":"Nice","address":"25 Rue Gubernatis 06000 Nice","chef":"Gaël et Mickaël Tourteaux","url":"https://restaurant.michelin.fr/2exgwy4/flaveur-nice"},{"name":"Le Grand Cerf","road":"50 rte Nationale","zipcode":"51500","city":"Montchenot","address":"50 rte Nationale 51500 Montchenot","chef":"Dominique Giraudeau et Pascal Champion","url":"https://restaurant.michelin.fr/2anw751/le-grand-cerf-montchenot"},{"name":"Alexandre","road":"2 rue Xavier Tronc","zipcode":"30128","city":"Garons","address":"2 rue Xavier Tronc 30128 Garons","chef":"Michel Kayser","url":"https://restaurant.michelin.fr/2a57m2j/alexandre-garons"},{"name":"Le Domaine du Colombier","road":"270 Chemin de Malombre","zipcode":"26780","city":"Malataverne","address":"270 Chemin de Malombre 26780 Malataverne","chef":"Cyril Fressac","url":"https://restaurant.michelin.fr/2ca9g6u/le-domaine-du-colombier-malataverne"},{"name":"Le Jasmin","road":"Lieu-dit Lalande","zipcode":"47140","city":"Saint-Sylvestre-sur-Lot","address":"Lieu-dit Lalande 47140 Saint-Sylvestre-sur-Lot","chef":"Michel Vico","url":"https://restaurant.michelin.fr/u6v6rb42/le-jasmin-saint-sylvestre-sur-lot"},{"name":"Les Rosiers","road":"32 av. Beau Soleil","zipcode":"64200","city":"Biarritz","address":"32 av. Beau Soleil 64200 Biarritz","chef":"Andrée et Stéphane Rosier","url":"https://restaurant.michelin.fr/2epi2a4/les-rosiers-biarritz"},{"name":"Le Sénéchal","road":"Sauveterre de Rouergue","zipcode":"12800","city":"Sauveterre-de-Rouergue","address":"Sauveterre de Rouergue 12800 Sauveterre-de-Rouergue","chef":"Michel Truchon","url":"https://restaurant.michelin.fr/2cv1ygx/le-senechal-sauveterre-de-rouergue"},{"name":"Maison Rostang","road":"20 rue Rennequin","zipcode":"75017","city":"Paris","address":"20 rue Rennequin 75017 Paris","chef":"Nicolas Beaumann","url":"https://restaurant.michelin.fr/2afdah0/maison-rostang-paris-17"},{"name":"La Table de l'Espadon","road":"15 Place Vendôme","zipcode":"75001","city":"Paris","address":"15 Place Vendôme 75001 Paris","chef":"Le Chef Nicolas Sale","url":"https://restaurant.michelin.fr/yhoi9vry/la-table-de-lespadon-paris-01"},{"name":"Les Explorateurs","road":"place du Slalom","zipcode":"73440","city":"VAL THORENS","address":"place du Slalom 73440 VAL THORENS","chef":"Josselin JEANBLANC","url":"https://restaurant.michelin.fr/ui89zrwk/les-explorateurs-val-thorens"},{"name":"La Grand'Vigne","road":"chemin de Smith-Haut-Lafitte","zipcode":"33650","city":"Martillac","address":"chemin de Smith-Haut-Lafitte 33650 Martillac","chef":"Nicolas Masse","url":"https://restaurant.michelin.fr/28yhuxy/la-grandvigne-martillac"},{"name":"Origine","road":"26 rampe Cauchoise","zipcode":"76000","city":"Rouen","address":"26 rampe Cauchoise 76000 Rouen","chef":"Benjamin Lechevallier","url":"https://restaurant.michelin.fr/3xmi14j/origine-rouen"},{"name":"Jean-Luc Tartarin","road":"Square Saint-Roch","zipcode":"76600","city":"Le Havre","address":"Square Saint-Roch 76600 Le Havre","chef":"Jean Luc Tartarin","url":"https://restaurant.michelin.fr/2enmc29/jean-luc-tartarin-le-havre"},{"name":"Villa René Lalique","road":"18 Rue Bellevue","zipcode":"67290","city":"Wingen-sur-Moder","address":"18 Rue Bellevue 67290 Wingen-sur-Moder","chef":"Jean-Georges Klein","url":"https://restaurant.michelin.fr/t645yf86/villa-rene-lalique-wingen-sur-moder"},{"name":"Pont de l'Ouysse","road":"D23","zipcode":"46200","city":"Lacave","address":"D23 46200 Lacave","chef":"Daniel et Stéphane Chambon","url":"https://restaurant.michelin.fr/29p8ja1/pont-de-louysse-lacave"},{"name":"Cyril Attrazic","road":"10 rte du Languedoc","zipcode":"48130","city":"Aumont-Aubrac","address":"10 rte du Languedoc 48130 Aumont-Aubrac","chef":"ATTRAZIC Cyril","url":"https://restaurant.michelin.fr/28rd58x/cyril-attrazic-aumont-aubrac"},{"name":"Le Roc Alto","road":"Quartier La Ville","zipcode":"05350","city":"SAINT-VERAN","address":"Quartier La Ville 05350 SAINT-VERAN","chef":"Alexandre Lechêne","url":"https://restaurant.michelin.fr/8xdk7lc4/le-roc-alto-saint-veran"},{"name":"Les Terraillers","road":"11 Route Chemin-Neuf","zipcode":"06410","city":"Biot","address":"11 Route Chemin-Neuf 06410 Biot","chef":"Michaël Fulci","url":"https://restaurant.michelin.fr/28x308q/les-terraillers-biot"},{"name":"Chapelle Saint-Martin","road":"33, Saint Martin du Fault","zipcode":"87510","city":"Nieul","address":"33, Saint Martin du Fault 87510 Nieul","chef":"Gilles Dudognon","url":"https://restaurant.michelin.fr/2c4rgah/chapelle-saint-martin-nieul"},{"name":"Domaine des Séquoias","road":"54 Vie-de-Boussieu","zipcode":"38300","city":"Ruy","address":"54 Vie-de-Boussieu 38300 Ruy","chef":"Eric Jambon","url":"https://restaurant.michelin.fr/28zo6i3/domaine-des-sequoias-ruy"},{"name":"Maison Kieny","road":"7 Rue du Général de Gaulle","zipcode":"68400","city":"Riedisheim","address":"7 Rue du Général de Gaulle 68400 Riedisheim","chef":"Jean-Marc KIENY","url":"https://restaurant.michelin.fr/2a22p1u/maison-kieny-riedisheim"},{"name":"Le Vivarais","road":"5 avenue Expilly","zipcode":"07600","city":"VALS-LES-BAINS","address":"5 avenue Expilly 07600 VALS-LES-BAINS","chef":"POLLY STEPHANE","url":"https://restaurant.michelin.fr/2fay1do/le-vivarais-vals-les-bains"},{"name":"Lasserre","road":"17 Avenue F. -D. -Roosevelt","zipcode":"75008","city":"Paris 08","address":"17 Avenue F. -D. -Roosevelt 75008 Paris 08","chef":"","url":"https://restaurant.michelin.fr/2abcqvg/lasserre-paris-08"},{"name":"L'Auberge des Glazicks","road":"7 rue de la Plage","zipcode":"29550","city":"PLOMODIERN","address":"7 rue de la Plage 29550 PLOMODIERN","chef":"Olivier Bellin","url":"https://restaurant.michelin.fr/2akhln2/lauberge-des-glazicks-plomodiern"},{"name":"La Palme d'Or","road":"73 Boulevard de la Croisette","zipcode":"06400","city":"Cannes","address":"73 Boulevard de la Croisette 06400 Cannes","chef":"Christian Sinicropi","url":"https://restaurant.michelin.fr/292bk5u/la-palme-dor-cannes"},{"name":"Michel Chabran - La Grande Table","road":"29 Avenue du Quarante-Cinquième Parallèle","zipcode":"26600","city":"Pont-de-l'Isère","address":"29 Avenue du Quarante-Cinquième Parallèle 26600 Pont-de-l'Isère","chef":"Michel Chabran","url":"https://restaurant.michelin.fr/2d0la2d/michel-chabran-la-grande-table-pont-de-lisere"},{"name":"L'Odas","road":"4 Passage Maurice Lenfant","zipcode":"76000","city":"Rouen","address":"4 Passage Maurice Lenfant 76000 Rouen","chef":"Olivier Da Silva","url":"https://restaurant.michelin.fr/33tyod0j/lodas-rouen"},{"name":"Helen","road":"3 r.Berryer","zipcode":"75008","city":"Paris","address":"3 r.Berryer 75008 Paris","chef":"Sébastien Carmona Porto","url":"https://restaurant.michelin.fr/3o59i9b/helen-paris-08"},{"name":"Régis et Jacques Marcon","road":"Larsiallas","zipcode":"43290","city":"SAINT-BONNET-LE-FROID","address":"Larsiallas 43290 SAINT-BONNET-LE-FROID","chef":"Régis et  Jacques Marcon","url":"https://restaurant.michelin.fr/2dntkxh/regis-et-jacques-marcon-saint-bonnet-le-froid"},{"name":"Jérôme Brochot","road":"Place Beaubernard","zipcode":"71300","city":"Montceau-les-Mines","address":"Place Beaubernard 71300 Montceau-les-Mines","chef":"Jérôme Brochot","url":"https://restaurant.michelin.fr/29zgkr3/jerome-brochot-montceau-les-mines"},{"name":"Pic","road":"285 avenue Victor Hugo","zipcode":"26000","city":"Valence","address":"285 avenue Victor Hugo 26000 Valence","chef":"Anne-Sophie Pic","url":"https://restaurant.michelin.fr/2d0hddd/pic-valence"},{"name":"Le Meurice Alain Ducasse","road":"228 Rue de Rivoli","zipcode":"75001","city":"Paris","address":"228 Rue de Rivoli 75001 Paris","chef":"Alain Ducasse et Jocelyn Herland","url":"https://restaurant.michelin.fr/2a7d9c1/le-meurice-alain-ducasse-paris-01"},{"name":"Auberge de la Diligence","road":"4 r. de la Libération","zipcode":"49440","city":"Loiré","address":"4 r. de la Libération 49440 Loiré","chef":"Michel Cudraz","url":"https://restaurant.michelin.fr/29ryt77/auberge-de-la-diligence-loire"},{"name":"L'Escarbille","road":"8 Rue de Vélizy","zipcode":"92190","city":"Meudon","address":"8 Rue de Vélizy 92190 Meudon","chef":"Régis Douysset","url":"https://restaurant.michelin.fr/2dtzs6c/lescarbille-meudon"},{"name":"Auberge du Cheval Blanc","road":"4 Route de Wissembourg","zipcode":"67510","city":"Lembach","address":"4 Route de Wissembourg 67510 Lembach","chef":"Pascal Bastian","url":"https://restaurant.michelin.fr/29qf1y7/auberge-du-cheval-blanc-lembach"},{"name":"La Passagère","road":"33 boulevard E. -Baudoin","zipcode":"06160","city":"Juan-les-Pins","address":"33 boulevard E. -Baudoin 06160 Juan-les-Pins","chef":"Aurélien VÉQUAUD","url":"https://restaurant.michelin.fr/29odhbw/la-passagere-juan-les-pins"},{"name":"Le Bois sans Feuilles","road":"728 Route de Villerest","zipcode":"42155","city":"Ouches","address":"728 Route de Villerest 42155 Ouches","chef":"Michel et César Troisgros","url":"https://restaurant.michelin.fr/2cm53gy/le-bois-sans-feuilles-ouches"},{"name":"Pur' - Jean-François Rouquette","road":"5 r. de la Paix","zipcode":"75002","city":"Paris 02","address":"5 r. de la Paix 75002 Paris 02","chef":"ROUQUETTE Jean-François","url":"https://restaurant.michelin.fr/2dqiunf/pur-jean-francois-rouquette-paris-02"},{"name":"Le P'tit Polyte","road":"2 Rue de la Chapelle","zipcode":"38860","city":"Les Deux Alpes","address":"2 Rue de la Chapelle 38860 Les Deux Alpes","chef":"Mathew Hegarty","url":"https://restaurant.michelin.fr/2bufvvg87/le-ptit-polyte-les-deux-alpes"},{"name":"La Scène Thélème","road":"18 Rue Troyon","zipcode":"75017","city":"Paris","address":"18 Rue Troyon 75017 Paris","chef":"Julien Roucheteau","url":"https://restaurant.michelin.fr/ygx47dyb/la-scene-theleme-paris-17"},{"name":"La Table des Merville","road":"3 place Richard","zipcode":"31320","city":"Castanet-Tolosan","address":"3 place Richard 31320 Castanet-Tolosan","chef":"Thierry Merville","url":"https://restaurant.michelin.fr/2b3ktxc/la-table-des-merville-castanet-tolosan"},{"name":"La Table de La Butte","road":"10 rue de la Mer","zipcode":"29260","city":"PLOUIDER","address":"10 rue de la Mer 29260 PLOUIDER","chef":"Nicolas Conraux","url":"https://restaurant.michelin.fr/2cj2itx/la-table-de-la-butte-plouider"},{"name":"Hélène Darroze","road":"4 rue d'Assas","zipcode":"75006","city":"Paris 06","address":"4 rue d'Assas 75006 Paris 06","chef":"Hélène Darroze","url":"https://restaurant.michelin.fr/2a93ort/helene-darroze-paris-06"},{"name":"Antoine","road":"10 av. de New-York","zipcode":"75116","city":"Paris 16","address":"10 av. de New-York 75116 Paris 16","chef":"Thibault Sombardier","url":"https://restaurant.michelin.fr/2euo0rk/antoine-paris-16"},{"name":"64° Le Restaurant","road":"9-13 Rue du Général de Gaulle","zipcode":"68240","city":"Kaysersberg","address":"9-13 Rue du Général de Gaulle 68240 Kaysersberg","chef":"Olivier Nasti","url":"https://restaurant.michelin.fr/2c30770n/64deg-le-restaurant-kaysersberg-vignoble"},{"name":"Girardin","road":"19 Rue des Têtes","zipcode":"68000","city":"Colmar","address":"19 Rue des Têtes 68000 Colmar","chef":"Éric Girardin","url":"https://restaurant.michelin.fr/xha7r0xl/girardin-colmar"},{"name":"Le Candille","road":"bd C. Rebuffel","zipcode":"06250","city":"Mougins","address":"bd C. Rebuffel 06250 Mougins","chef":"Xavier Burelle","url":"https://restaurant.michelin.fr/2a1fgdk/le-candille-mougins"},{"name":"Ô Saveurs","road":"8 place Ormeaux au village","zipcode":"31180","city":"ROUFFIAC-TOLOSAN","address":"8 place Ormeaux au village 31180 ROUFFIAC-TOLOSAN","chef":"David Biasibetti","url":"https://restaurant.michelin.fr/2b3jb0y/o-saveurs-rouffiac-tolosan"},{"name":"L'Abeille","road":"10 Avenue d'Iéna","zipcode":"75016","city":"Paris 16","address":"10 Avenue d'Iéna 75016 Paris 16","chef":"Christophe Moret","url":"https://restaurant.michelin.fr/2fcezsf/labeille-paris-16"},{"name":"Grand Hôtel du Lion d'Or","road":"69 r. Clemenceau","zipcode":"41200","city":"Romorantin-Lanthenay","address":"69 r. Clemenceau 41200 Romorantin-Lanthenay","chef":"Didier Clément","url":"https://restaurant.michelin.fr/2cn0867/grand-hotel-du-lion-dor-romorantin-lanthenay"},{"name":"Auberge de l'Ill","road":"2 rue de Collonges-au-Mont d'Or","zipcode":"68970","city":"Illhaeusern","address":"2 rue de Collonges-au-Mont d'Or 68970 Illhaeusern","chef":"Marc Haeberlin","url":"https://restaurant.michelin.fr/29nft26/auberge-de-lill-illhaeusern"},{"name":"AM par Alexandre Mazzia","road":"9 rue François Rocca","zipcode":"13008","city":"Marseille","address":"9 rue François Rocca 13008 Marseille","chef":"Alexandre Mazzia","url":"https://restaurant.michelin.fr/4gq15sff/am-par-alexandre-mazzia-marseille-08"},{"name":"La Bastide St-Antoine","road":"48 av. Henri-Dunant","zipcode":"06130","city":"Grasse","address":"48 av. Henri-Dunant 06130 Grasse","chef":"Jacques Chibois","url":"https://restaurant.michelin.fr/29ktfvn/la-bastide-st-antoine-grasse"},{"name":"La Table d'Uzès","road":"18 rue du Docteur Blanchard","zipcode":"30700","city":"Uzès","address":"18 rue du Docteur Blanchard 30700 Uzès","chef":"","url":"https://restaurant.michelin.fr/1ss80t3t/la-table-duzes-uzes"},{"name":"Loiseau des Ducs","road":"3 Rue Vauban","zipcode":"21000","city":"Dijon","address":"3 Rue Vauban 21000 Dijon","chef":"Louis-Philippe Vigilant","url":"https://restaurant.michelin.fr/2jd4ivca/loiseau-des-ducs-dijon"},{"name":"Neige d'Été","road":"12 Rue de l'Amiral Roussin","zipcode":"75015","city":"Paris 15","address":"12 Rue de l'Amiral Roussin 75015 Paris 15","chef":"Hideki Nishi","url":"https://restaurant.michelin.fr/9fkib5i9/neige-dete-paris-15"},{"name":"Logis de la Cadène","road":"Place du Marche au Bois","zipcode":"33330","city":"Saint Emilion","address":"Place du Marche au Bois 33330 Saint Emilion","chef":"Alexandre Baumard","url":"https://restaurant.michelin.fr/3kw7mh1/logis-de-la-cadene-saint-emilion"},{"name":"L'Arôme","road":"3 rue St-Philippe-du-Roule","zipcode":"75008","city":"Paris 08","address":"3 rue St-Philippe-du-Roule 75008 Paris 08","chef":"BOULLAULT THOMAS","url":"https://restaurant.michelin.fr/2e8vcj7/larome-paris-08"},{"name":"Les Clefs d'Argent","road":"333 Avenue des Martyrs de la Résistance","zipcode":"40000","city":"Mont-de-Marsan","address":"333 Avenue des Martyrs de la Résistance 40000 Mont-de-Marsan","chef":"Christophe Dupouy","url":"https://restaurant.michelin.fr/2e0bvx8/les-clefs-dargent-mont-de-marsan"},{"name":"Jérôme Nutile - Le Mas de Boudan","road":"351 Chemin du Mas de Boudan","zipcode":"30000","city":"Nîmes","address":"351 Chemin du Mas de Boudan 30000 Nîmes","chef":"Jérôme Nutile","url":"https://restaurant.michelin.fr/cne1oxue/jerome-nutile-le-mas-de-boudan-nimes"},{"name":"L'Écrin","road":"10 place de la Concorde","zipcode":"75008","city":"Paris","address":"10 place de la Concorde 75008 Paris","chef":"Christopher Hache","url":"https://restaurant.michelin.fr/3503291/lecrin-paris-08"},{"name":"Auberge St-Laurent","road":"1 rue Fontaine","zipcode":"68510","city":"Sierentz","address":"1 rue Fontaine 68510 Sierentz","chef":"Laurent Arbeit","url":"https://restaurant.michelin.fr/2b05ga9/auberge-st-laurent-sierentz"},{"name":"Kasbür","road":"8 Rue de Dettwiller","zipcode":"67700","city":"Monswiller","address":"8 Rue de Dettwiller 67700 Monswiller","chef":"Yves Kieffer","url":"https://restaurant.michelin.fr/2az3rad/kasbur-monswiller"},{"name":"Le Cinq","road":"31 av. George V","zipcode":"75008","city":"Paris 08","address":"31 av. George V 75008 Paris 08","chef":"Christian Le Squer","url":"https://restaurant.michelin.fr/2ab2thp/le-cinq-paris-08"},{"name":"René et Maxime Meilleur","road":"Saint Marcel","zipcode":"73440","city":"Saint-Martin-de-Belleville","address":"Saint Marcel 73440 Saint-Martin-de-Belleville","chef":"René et Maxime Meilleur","url":"https://restaurant.michelin.fr/2avet55/rene-et-maxime-meilleur-saint-martin-de-belleville"},{"name":"Apicius","road":"Marché Saint Pierre 1 étage","zipcode":"63000","city":"Clermont-Ferrand","address":"Marché Saint Pierre 1 étage 63000 Clermont-Ferrand","chef":"Arkadiusz Zuchmanski","url":"https://restaurant.michelin.fr/2ek9zhh/apicius-clermont-ferrand"},{"name":"Le Mascaret","road":"1 r. de Bas","zipcode":"50560","city":"Blainville-sur-Mer","address":"1 r. de Bas 50560 Blainville-sur-Mer","chef":"Philippe Hardy","url":"https://restaurant.michelin.fr/2edzchf/le-mascaret-blainville-sur-mer"},{"name":"Le Clair de la Plume","road":"Place du Mail","zipcode":"26230","city":"Grignan","address":"Place du Mail 26230 Grignan","chef":"Julien ALLANO, Chef de Cuisine","url":"https://restaurant.michelin.fr/2faahd5/le-clair-de-la-plume-grignan"},{"name":"Le Petit Hôtel du Grand Large","road":"11 quai St-Ivy","zipcode":"56510","city":"Portivy","address":"11 quai St-Ivy 56510 Portivy","chef":"Hervé Bourdon","url":"https://restaurant.michelin.fr/2dy7rqn/le-petit-hotel-du-grand-large-portivy"},{"name":"La Mare aux Oiseaux","road":"223 RUE DU CHEF DE L'ILE Fedrun","zipcode":"44720","city":"Saint-Joachim","address":"223 RUE DU CHEF DE L'ILE Fedrun 44720 Saint-Joachim","chef":"Eric Guérin","url":"https://restaurant.michelin.fr/2atvlv0/la-mare-aux-oiseaux-saint-joachim"},{"name":"Les Ducs de Lorraine","road":"5 av. Provence","zipcode":"88000","city":"Épinal","address":"5 av. Provence 88000 Épinal","chef":"Stéphane Ringer et Rémi Gornet","url":"https://restaurant.michelin.fr/29fq33a/les-ducs-de-lorraine-epinal"},{"name":"1131","road":"D 33","zipcode":"21360","city":"La Bussière-sur-Ouche","address":"D 33 21360 La Bussière-sur-Ouche","chef":"Royer Guillaume","url":"https://restaurant.michelin.fr/2e4epe8/1131-la-bussiere-sur-ouche"},{"name":"Les Voiles d'Or","road":"2 chemin de la Falaise","zipcode":"76200","city":"Dieppe","address":"2 chemin de la Falaise 76200 Dieppe","chef":"Tristan Arhan","url":"https://restaurant.michelin.fr/2dtoif7/les-voiles-dor-dieppe"},{"name":"Dominique Bucaille","road":"715 av. des Savels","zipcode":"04100","city":"Manosque","address":"715 av. des Savels 04100 Manosque","chef":"Bucaille Dominique","url":"https://restaurant.michelin.fr/nwxo8h9/dominique-bucaille-manosque"},{"name":"Numéro 3","road":"3 rue du Général de Gaulle","zipcode":"78490","city":"Le Tremblay-sur-Mauldre","address":"3 rue du Général de Gaulle 78490 Le Tremblay-sur-Mauldre","chef":"Laurent Trochain","url":"https://restaurant.michelin.fr/2dnmje9/numero-3-le-tremblay-sur-mauldre"},{"name":"Le Figuier de St-Esprit","road":"7, Promenade Amiral de Grasse","zipcode":"06600","city":"Antibes","address":"7, Promenade Amiral de Grasse 06600 Antibes","chef":"Christian Morisset","url":"https://restaurant.michelin.fr/2ejmich/le-figuier-de-st-esprit-antibes"},{"name":"Le Domaine de la Corniche","road":"5 rte de la Corniche","zipcode":"78270","city":"Rolleboise","address":"5 rte de la Corniche 78270 Rolleboise","chef":"Julien Razemon","url":"https://restaurant.michelin.fr/2cmxk0v/le-domaine-de-la-corniche-rolleboise"},{"name":"L'Atelier de Gaztelur","road":"Chemin de Gastelhur","zipcode":"64200","city":"Arcangues","address":"Chemin de Gastelhur 64200 Arcangues","chef":"Alexandre Bousquet","url":"https://restaurant.michelin.fr/t3tqba7q/latelier-de-gaztelur-arcangues"},{"name":"Paloma","road":"47 Avenue du Moulin de la Croix","zipcode":"06250","city":"Mougins","address":"47 Avenue du Moulin de la Croix 06250 Mougins","chef":"Nicolas DECHERCHI","url":"https://restaurant.michelin.fr/280mq6yn/paloma-mougins"},{"name":"Ivan Vautier","road":"3 avenue Henry-Chéron","zipcode":"14000","city":"Caen","address":"3 avenue Henry-Chéron 14000 Caen","chef":"Ivan Vautier","url":"https://restaurant.michelin.fr/290z3mh/ivan-vautier-caen"},{"name":"Les Cèdres","road":"25 Rue Henri MACHON","zipcode":"26600","city":"Granges-les-Beaumont","address":"25 Rue Henri MACHON 26600 Granges-les-Beaumont","chef":"Jacques Bertrand","url":"https://restaurant.michelin.fr/2appio4/les-cedres-granges-les-beaumont"},{"name":"L'Impertinent","road":"5, rue d'Alsace","zipcode":"64200","city":"Biarritz","address":"5, rue d'Alsace 64200 Biarritz","chef":"Fabian Feldmann","url":"https://restaurant.michelin.fr/h2j2em3/limpertinent-biarritz"},{"name":"Il Cortile","road":"11 r. des Franciscains","zipcode":"68100","city":"Mulhouse","address":"11 r. des Franciscains 68100 Mulhouse","chef":"Stefano D'Onghia","url":"https://restaurant.michelin.fr/2dcdnms/il-cortile-mulhouse"},{"name":"La Promenade","road":"11 rue du Savoureulx","zipcode":"37350","city":"Le Petit-Pressigny","address":"11 rue du Savoureulx 37350 Le Petit-Pressigny","chef":"Fabrice et Jacky Dallais","url":"https://restaurant.michelin.fr/2ajy6gr/la-promenade-le-petit-pressigny"},{"name":"Le Farçon","road":"immeuble la Kalinka","zipcode":"73125","city":"La Tania","address":"immeuble la Kalinka 73125 La Tania","chef":"Julien Machet","url":"https://restaurant.michelin.fr/2dczscn/le-farcon-la-tania"},{"name":"Mère Brazier","road":"12 rue Royale","zipcode":"69001","city":"LYON","address":"12 rue Royale 69001 LYON","chef":"Mathieu Viannay","url":"https://restaurant.michelin.fr/2et3r6g/mere-brazier-lyon"},{"name":"Le Raisin","road":"2 pl. M. -Poisat","zipcode":"01190","city":"Pont-de-Vaux","address":"2 pl. M. -Poisat 01190 Pont-de-Vaux","chef":"Frédéric Michel","url":"https://restaurant.michelin.fr/2al9714/le-raisin-pont-de-vaux"},{"name":"Hostellerie Bérard","road":"Avenue Gabriel-Péri","zipcode":"83740","city":"LA-CADIERE-D'AZUR","address":"Avenue Gabriel-Péri 83740 LA-CADIERE-D'AZUR","chef":"Jean-François Bérard","url":"https://restaurant.michelin.fr/2bl33gu/hostellerie-berard-la-cadiere-dazur"},{"name":"Les Berceaux","road":"13 rue des Berceaux","zipcode":"51200","city":"Épernay","address":"13 rue des Berceaux 51200 Épernay","chef":"Patrick Michelon","url":"https://restaurant.michelin.fr/29fhuzu/les-berceaux-epernay"},{"name":"William Frachot","road":"5 rue Michelet","zipcode":"21000","city":"DIJON","address":"5 rue Michelet 21000 DIJON","chef":"William Frachot","url":"https://restaurant.michelin.fr/2buprmi/william-frachot-dijon"},{"name":"Le St-Placide","road":"6 place du poncel","zipcode":"35400","city":"Saint-Malo","address":"6 place du poncel 35400 Saint-Malo","chef":"Luc Mobihan","url":"https://restaurant.michelin.fr/2av98t5/le-st-placide-saint-malo"},{"name":"Le Chiberta","road":"3 Rue Arsène Houssaye","zipcode":"75008","city":"Paris 08","address":"3 Rue Arsène Houssaye 75008 Paris 08","chef":"Stéphane Laruelle","url":"https://restaurant.michelin.fr/2abl39j/le-chiberta-paris-08"},{"name":"La Maison d'à Côté","road":"17 rue de Chambord","zipcode":"41350","city":"Montlivault","address":"17 rue de Chambord 41350 Montlivault","chef":"Christophe Hay","url":"https://restaurant.michelin.fr/2dxwn73/la-maison-da-cote-montlivault"},{"name":"Le Manoir du Lys","road":"D235","zipcode":"61140","city":"Bagnoles-de-l'Orne","address":"D235 61140 Bagnoles-de-l'Orne","chef":"Franck Quinton","url":"https://restaurant.michelin.fr/2bfnmbt/le-manoir-du-lys-bagnoles-de-lorne-normandie"},{"name":"Auberge du Bon Laboureur","road":"6 r. Dr Bretonneau","zipcode":"37150","city":"Chenonceaux","address":"6 r. Dr Bretonneau 37150 Chenonceaux","chef":"Antoine Jeudi","url":"https://restaurant.michelin.fr/2bpwyme/auberge-du-bon-laboureur-chenonceaux"},{"name":"Le Violon d'Ingres","road":"135 route St-Dominique","zipcode":"75007","city":"Paris","address":"135 route St-Dominique 75007 Paris","chef":"Christian Constant","url":"https://restaurant.michelin.fr/2aa5u1w/le-violon-dingres-paris-07"},{"name":"Le Cloître","road":"Le Cloitre","zipcode":"04300","city":"Mane","address":"Le Cloitre 04300 Mane","chef":"Jerome Roy","url":"https://restaurant.michelin.fr/2ep5ghq/le-cloitre-mane"},{"name":"Lamartine","road":"Route du Tunnel du Chat","zipcode":"73370","city":"Le Bourget du Lac","address":"Route du Tunnel du Chat 73370 Le Bourget du Lac","chef":"Pierre Marin","url":"https://restaurant.michelin.fr/28zi7ln/lamartine-le-bourget-du-lac"},{"name":"Patrick Jeffroy","road":"20 rue du Kelenn","zipcode":"29660","city":"Carantec","address":"20 rue du Kelenn 29660 Carantec","chef":"Patrick Jeffroy","url":"https://restaurant.michelin.fr/2bm9rwc/patrick-jeffroy-carantec"},{"name":"1217","road":"le bourg","zipcode":"69620","city":"Bagnols","address":"le bourg 69620 Bagnols","chef":"Jean-Alexandre OUARATTA","url":"https://restaurant.michelin.fr/2bfuk4c/1217-bagnols"},{"name":"Le Saison","road":"1 imp. du Vieux-Bourg","zipcode":"35760","city":"Saint-Grégoire","address":"1 imp. du Vieux-Bourg 35760 Saint-Grégoire","chef":"David Etcheverry","url":"https://restaurant.michelin.fr/2ao631n/le-saison-saint-gregoire"},{"name":"Ed.Em","road":"4 imp. Chenevottes","zipcode":"21190","city":"Chassagne-Montrachet","address":"4 imp. Chenevottes 21190 Chassagne-Montrachet","chef":"Edouard Mignot","url":"https://restaurant.michelin.fr/295xqfd/edem-chassagne-montrachet"},{"name":"Sur Mesure par Thierry Marx","road":"251 r. St-Honoré","zipcode":"75001","city":"Paris 01","address":"251 r. St-Honoré 75001 Paris 01","chef":"Thierry Marx","url":"https://restaurant.michelin.fr/6f226za/sur-mesure-par-thierry-marx-paris-01"},{"name":"Le Quinzième - Cyril Lignac","road":"14 rue Cauchy","zipcode":"75015","city":"Paris","address":"14 rue Cauchy 75015 Paris","chef":"Cyril Lignac","url":"https://restaurant.michelin.fr/2dtfbbi/le-quinzieme-cyril-lignac-paris-15"},{"name":"L'Épuisette","road":"158 Vallon-des-Auffes","zipcode":"13007","city":"Marseille","address":"158 Vallon-des-Auffes 13007 Marseille","chef":"Guillaume SOURRIEU","url":"https://restaurant.michelin.fr/29w1hx9/lepuisette-marseille-07"},{"name":"Auberge à la Bonne Idée","road":"3 rue des Meuniers","zipcode":"60350","city":"SAINT-JEAN-AUX-BOIS","address":"3 rue des Meuniers 60350 SAINT-JEAN-AUX-BOIS","chef":"Yves Giustinani","url":"https://restaurant.michelin.fr/2ak8isu/auberge-la-bonne-idee-saint-jean-aux-bois"},{"name":"Le Patio","road":"10 bd de la Plage","zipcode":"33120","city":"Arcachon","address":"10 bd de la Plage 33120 Arcachon","chef":"Thierry Renou","url":"https://restaurant.michelin.fr/28q4ohd/le-patio-arcachon"},{"name":"Le Relais Bernard Loiseau","road":"2, rue d'Argentine","zipcode":"21210","city":"Saulieu","address":"2, rue d'Argentine 21210 Saulieu","chef":"Patrick Bertron","url":"https://restaurant.michelin.fr/2cur8yy/le-relais-bernard-loiseau-saulieu"},{"name":"Le Carré d'Alethius","road":"4 r. Paul-Bertois","zipcode":"07800","city":"Charmes-sur-Rhône","address":"4 r. Paul-Bertois 07800 Charmes-sur-Rhône","chef":"Olivier Samin","url":"https://restaurant.michelin.fr/2fa4jx5/le-carre-dalethius-charmes-sur-rhone"},{"name":"Flocons de Sel","road":"1775 rte du Leutaz","zipcode":"74120","city":"Megève","address":"1775 rte du Leutaz 74120 Megève","chef":"Emmanuel Renaut","url":"https://restaurant.michelin.fr/29wzk9t/flocons-de-sel-megeve"},{"name":"L'Almandin","road":"Boulevard de l'Almandin","zipcode":"66750","city":"Saint-Cyprien","address":"Boulevard de l'Almandin 66750 Saint-Cyprien","chef":"Christophe Schmitt","url":"https://restaurant.michelin.fr/2as8r3a/lalmandin-saint-cyprien-plage"},{"name":"Auberge Frankenbourg","road":"13 r. Gén. de Gaulle","zipcode":"67730","city":"La Vancelle","address":"13 r. Gén. de Gaulle 67730 La Vancelle","chef":"Sébastien Buecher","url":"https://restaurant.michelin.fr/29qv5p8/auberge-frankenbourg-la-vancelle"},{"name":"Cobéa","road":"11 r. Raymond Losserand","zipcode":"75014","city":"Paris 14","address":"11 r. Raymond Losserand 75014 Paris 14","chef":"Philippe Bélissent","url":"https://restaurant.michelin.fr/2adr3mu/cobea-paris-14"},{"name":"Alcyone","road":"1 Place Daviel","zipcode":"13002","city":"MARSEILLE","address":"1 Place Daviel 13002 MARSEILLE","chef":"Lionel Levy","url":"https://restaurant.michelin.fr/3f9eksg5n/alcyone-marseille-02"},{"name":"Les Terrasses de Lyon","road":"25, montée Saint BArthelémy","zipcode":"69005","city":"Lyon 05","address":"25, montée Saint BArthelémy 69005 Lyon 05","chef":"David Delsart","url":"https://restaurant.michelin.fr/29t2ib7/les-terrasses-de-lyon-lyon-05"},{"name":"La Nouvelle Auberge","road":"9 route Nationale","zipcode":"68230","city":"Wihr-au-Val","address":"9 route Nationale 68230 Wihr-au-Val","chef":"Bernard Leray","url":"https://restaurant.michelin.fr/2a2adlj/la-nouvelle-auberge-wihr-au-val"},{"name":"Château d'Adoménil","road":"","zipcode":"54300","city":"Lunéville","address":" 54300 Lunéville","chef":"Cyril Leclerc","url":"https://restaurant.michelin.fr/2c5ztru/chateau-dadomenil-luneville"},{"name":"Le Strasbourg","road":"24 r. du Col. -Teyssier","zipcode":"57230","city":"Bitche","address":"24 r. du Col. -Teyssier 57230 Bitche","chef":"Lutz Janisch","url":"https://restaurant.michelin.fr/28x69qn/le-strasbourg-bitche"},{"name":"Hostellerie de Plaisance","road":"5 place du Clocher","zipcode":"33330","city":"Saint-Emilion","address":"5 place du Clocher 33330 Saint-Emilion","chef":"Ronan Kervarrec","url":"https://restaurant.michelin.fr/2cp6y7n/hostellerie-de-plaisance-saint-emilion"},{"name":"Alliance","road":"5 Rue de Poissy","zipcode":"75005","city":"Paris","address":"5 Rue de Poissy 75005 Paris","chef":"Toshitaka Omiya","url":"https://restaurant.michelin.fr/t4cp5kaa/alliance-paris-05"},{"name":"Sylvestre","road":"79 rue St-Dominique","zipcode":"75007","city":"Paris","address":"79 rue St-Dominique 75007 Paris","chef":"Sylvestre Wahid","url":"https://restaurant.michelin.fr/2fe7j1g/sylvestre-paris-07"},{"name":"Le Colombier","road":"r. Loucheur","zipcode":"76550","city":"Offranville","address":"r. Loucheur 76550 Offranville","chef":"Laurent Kleczewski","url":"https://restaurant.michelin.fr/29d8fg4/le-colombier-offranville"},{"name":"Le Belrose","road":"Boulevard des Crêtes","zipcode":"83580","city":"Gassin","address":"Boulevard des Crêtes 83580 Gassin","chef":"Pietro Volonté","url":"https://restaurant.michelin.fr/2ct3bc6/le-belrose-bertaud"},{"name":"Auberge au Boeuf","road":"Rue de l'Eglise","zipcode":"67770","city":"Sessenheim","address":"Rue de l'Eglise 67770 Sessenheim","chef":"Yannick Germain","url":"https://restaurant.michelin.fr/2b00ufd/auberge-au-boeuf-sessenheim"},{"name":"Le Cap","road":"71 Boulevard du Général-de-Gaulle","zipcode":"06230","city":"SAINT-JEAN-CAP-FERRAT","address":"71 Boulevard du Général-de-Gaulle 06230 SAINT-JEAN-CAP-FERRAT","chef":"Yoric Tièche","url":"https://restaurant.michelin.fr/2cqc8op/le-cap-saint-jean-cap-ferrat"},{"name":"Xavier Mathieu","road":"Route de Murs","zipcode":"84220","city":"Joucas","address":"Route de Murs 84220 Joucas","chef":"Mr Xavier Mathieu","url":"https://restaurant.michelin.fr/2c2u7lh/xavier-mathieu-joucas"},{"name":"L'Olivier","road":"25 Route des Carles","zipcode":"83990","city":"Saint-Tropez","address":"25 Route des Carles 83990 Saint-Tropez","chef":"COLINET PHILIPPE","url":"https://restaurant.michelin.fr/2css2bw/lolivier-saint-tropez"},{"name":"Hervé Busset","road":"D901","zipcode":"12320","city":"Conques","address":"D901 12320 Conques","chef":"HERVE BUSSET","url":"https://restaurant.michelin.fr/2brjniu/herve-busset-conques-en-rouergue"},{"name":"Le Pressoir d'Argent - Gordon Ramsay","road":"2,5 Place de la Comédie","zipcode":"33000","city":"Bordeaux","address":"2,5 Place de la Comédie 33000 Bordeaux","chef":"Gordon Ramsay et le Chef Exécutif Gilad Peled","url":"https://restaurant.michelin.fr/2epcrm9/le-pressoir-dargent-gordon-ramsay-bordeaux"},{"name":"La Fourchette des Ducs","road":"6 r. de la Gare","zipcode":"67210","city":"Obernai","address":"6 r. de la Gare 67210 Obernai","chef":"Nicolas Stamm","url":"https://restaurant.michelin.fr/2a5ztne/la-fourchette-des-ducs-obernai"},{"name":"Kei","road":"5 rue du Coq-Héron","zipcode":"75001","city":"Paris 01","address":"5 rue du Coq-Héron 75001 Paris 01","chef":"Kei Kobayashi","url":"https://restaurant.michelin.fr/9tmwymw/kei-paris-01"},{"name":"Les Terrasses d'Uriage","road":"pl. Déesse-Hygie","zipcode":"38410","city":"Uriage-les-Bains","address":"pl. Déesse-Hygie 38410 Uriage-les-Bains","chef":"Christophe Aribert","url":"https://restaurant.michelin.fr/2b5lehi/les-terrasses-duriage-uriage-les-bains"},{"name":"Le Moulin du Roc","road":"Avenue Eugène Le Roy","zipcode":"24530","city":"Champagnac-de-Belair","address":"Avenue Eugène Le Roy 24530 Champagnac-de-Belair","chef":"Alain Gardillou","url":"https://restaurant.michelin.fr/2bk7w2q/le-moulin-du-roc-champagnac-de-belair"},{"name":"Takao Takano","road":"33 Rue Malesherbes","zipcode":"69006","city":"Lyon 06","address":"33 Rue Malesherbes 69006 Lyon 06","chef":"Takao Takano","url":"https://restaurant.michelin.fr/1fchzdq5/takao-takano-lyon-06"},{"name":"Château de Mercuès","road":"Route du Château","zipcode":"46090","city":"Mercuès","address":"Route du Château 46090 Mercuès","chef":"Julien Poisot","url":"https://restaurant.michelin.fr/2blc3qr/chateau-de-mercues-mercues"},{"name":"Une Île","road":"9 r. Max-Richard","zipcode":"49000","city":"Angers","address":"9 r. Max-Richard 49000 Angers","chef":"Gérard Bossé","url":"https://restaurant.michelin.fr/2erjwfi/une-ile-angers"},{"name":"La Table du Connétable","road":"4 Rue du Connétable","zipcode":"60500","city":"Chantilly","address":"4 Rue du Connétable 60500 Chantilly","chef":"Julien Lucas","url":"https://restaurant.michelin.fr/jgutdlg/la-table-du-connetable-chantilly"},{"name":"La Chassagnette","road":"route du Sambuc","zipcode":"13200","city":"Arles","address":"route du Sambuc 13200 Arles","chef":"","url":"https://restaurant.michelin.fr/28qr6q2/la-chassagnette-arles"},{"name":"La Grande Maison de Bernard Magrez","road":"10 Rue Labottière","zipcode":"33000","city":"Bordeaux","address":"10 Rue Labottière 33000 Bordeaux","chef":"Pierre Gagnaire","url":"https://restaurant.michelin.fr/a7u4fcer/la-grande-maison-de-bernard-magrez-bordeaux"},{"name":"Likoké","road":"7 rte de Païolive","zipcode":"07140","city":"Les Vans","address":"7 rte de Païolive 07140 Les Vans","chef":"Piet Huysentruyt","url":"https://restaurant.michelin.fr/1ad26y4c/likoke-les-vans"},{"name":"Maison Christian Étienne","road":"10 Rue de Mons","zipcode":"84000","city":"Avignon","address":"10 Rue de Mons 84000 Avignon","chef":"Guilhem Sevin","url":"https://restaurant.michelin.fr/28s2o1u/maison-christian-etienne-avignon"},{"name":"Les Fresques","road":"13 Avenue des Mateirons","zipcode":"74500","city":"Évian-les-Bains","address":"13 Avenue des Mateirons 74500 Évian-les-Bains","chef":"Patrice Vander","url":"https://restaurant.michelin.fr/29gdnxp256n/les-fresques-evian-les-bains"},{"name":"Mathieu Pacaud - Histoires","road":"85 Avenue Kléber","zipcode":"75016","city":"Paris","address":"85 Avenue Kléber 75016 Paris","chef":"Mathieu Pacaud","url":"https://restaurant.michelin.fr/raf8m6mo/mathieu-pacaud-histoires-paris-16"},{"name":"Le Passe Temps","road":"52 Rue Tronchet","zipcode":"69006","city":"Lyon","address":"52 Rue Tronchet 69006 Lyon","chef":"Younghoon Lee","url":"https://restaurant.michelin.fr/44ahwpa/le-passe-temps-lyon-06"},{"name":"L'Atelier Yssoirien","road":"39 Boulevard Triozon-Bayle","zipcode":"63500","city":"Issoire","address":"39 Boulevard Triozon-Bayle 63500 Issoire","chef":"Dorian Van Bronkhorst","url":"https://restaurant.michelin.fr/akc6ovv/latelier-yssoirien-issoire"},{"name":"La Gourmandière - La Table d'Olivier","road":"D126","zipcode":"56000","city":"Vannes","address":"D126 56000 Vannes","chef":"Olivier Samson","url":"https://restaurant.michelin.fr/3n5gkk2/la-gourmandiere-la-table-dolivier-vannes"},{"name":"Auberge de la Brie","road":"14 av. Alphonse Boulingre","zipcode":"77860","city":"Couilly-Pont-aux-Dames","address":"14 av. Alphonse Boulingre 77860 Couilly-Pont-aux-Dames","chef":"Alain Pavard","url":"https://restaurant.michelin.fr/29ask7o/auberge-de-la-brie-couilly-pont-aux-dames"},{"name":"Auberge de l'Abbaye","road":"47 place des anciens Combattants","zipcode":"01500","city":"Ambronay","address":"47 place des anciens Combattants 01500 Ambronay","chef":"Ivan Lavaux","url":"https://restaurant.michelin.fr/2dnoa2o/auberge-de-labbaye-ambronay"},{"name":"Alain Ducasse au Plaza Athénée","road":"25 avenue Montaigne","zipcode":"75008","city":"Paris","address":"25 avenue Montaigne 75008 Paris","chef":"","url":"https://restaurant.michelin.fr/2ab76wf/alain-ducasse-au-plaza-athenee-paris-08"},{"name":"Prairial","road":"11 Rue Chavanne","zipcode":"69001","city":"Lyon","address":"11 Rue Chavanne 69001 Lyon","chef":"Gaëtan Gentil","url":"https://restaurant.michelin.fr/cpiyfjc0/prairial-lyon"},{"name":"Agapé","road":"51 rue Jouffroy-d'Abbans","zipcode":"75017","city":"Paris 17","address":"51 rue Jouffroy-d'Abbans 75017 Paris 17","chef":"Yoshitaka Takayanagi","url":"https://restaurant.michelin.fr/2eo1t6h/agape-paris-17"},{"name":"Quai des Saveurs","road":"69 rue de la Gare","zipcode":"57300","city":"Hagondange","address":"69 rue de la Gare 57300 Hagondange","chef":"Frédéric Sandrini","url":"https://restaurant.michelin.fr/2e9sbx2/quai-des-saveurs-hagondange"},{"name":"Astrance","road":"4 r. Beethoven","zipcode":"75016","city":"Paris","address":"4 r. Beethoven 75016 Paris","chef":"Pascal Barbot","url":"https://restaurant.michelin.fr/2aeq3md/astrance-paris-16"},{"name":"Le Vivier","road":"800 cours F. Peyre (rte de Carpentras)","zipcode":"84800","city":"L'Isle-sur-la-Sorgue","address":"800 cours F. Peyre (rte de Carpentras) 84800 L'Isle-sur-la-Sorgue","chef":"ROMAIN GANDOLPHE","url":"https://restaurant.michelin.fr/29nsjme/le-vivier-lisle-sur-la-sorgue"},{"name":"Château de Codignat","road":"Bort l'Etang","zipcode":"63190","city":"Bort-l'Étang","address":"Bort l'Etang 63190 Bort-l'Étang","chef":"Barbet Matthieu","url":"https://restaurant.michelin.fr/2c4fx70/chateau-de-codignat-bort-letang"},{"name":"La Voile","road":"chemin de la Quessine","zipcode":"83350","city":"Ramatuelle","address":"chemin de la Quessine 83350 Ramatuelle","chef":"Eric Canino","url":"https://restaurant.michelin.fr/9tangja/la-voile-ramatuelle"},{"name":"Albert 1er","road":"38 rte du Bouchet","zipcode":"74400","city":"Chamonix-Mont-Blanc","address":"38 rte du Bouchet 74400 Chamonix-Mont-Blanc","chef":"Pierre Maillet","url":"https://restaurant.michelin.fr/2bnvpvu/albert-1er-chamonix-mont-blanc"},{"name":"L'Hysope","road":"25 r. de l'Aurore","zipcode":"17220","city":"La Jarrie","address":"25 r. de l'Aurore 17220 La Jarrie","chef":"","url":"https://restaurant.michelin.fr/hq8ezzf7/lhysope-la-jarrie"},{"name":"La Tour des Vents","road":"Le Moulin de Malfourat","zipcode":"24240","city":"Monbazillac","address":"Le Moulin de Malfourat 24240 Monbazillac","chef":"Damien Fagette","url":"https://restaurant.michelin.fr/28vws7k/la-tour-des-vents-monbazillac"},{"name":"Buerehiesel","road":"dans le parc de l'Orangerie","zipcode":"67000","city":"Strasbourg","address":"dans le parc de l'Orangerie 67000 Strasbourg","chef":"Eric Westermann","url":"https://restaurant.michelin.fr/2b0sgrs/buerehiesel-strasbourg"},{"name":"Le Pré Catelan","road":"Route de Suresnes","zipcode":"75016","city":"Paris","address":"Route de Suresnes 75016 Paris","chef":"Chef Frédéric Anton","url":"https://restaurant.michelin.fr/2af46v7/le-pre-catelan-paris-16"},{"name":"Allium","road":"88 bd de Créac'h-Gwen","zipcode":"29000","city":"Quimper","address":"88 bd de Créac'h-Gwen 29000 Quimper","chef":"Lionel Hénaff","url":"https://restaurant.michelin.fr/suqhhtor/allium-quimper"},{"name":"Le Restaurant","road":"13 rue des Beaux-Arts","zipcode":"75006","city":"Paris 06","address":"13 rue des Beaux-Arts 75006 Paris 06","chef":"Julien Montbabut","url":"https://restaurant.michelin.fr/2cfem9h/le-restaurant-paris-06"},{"name":"Paul Bocuse","road":"40 Rue de la Plage","zipcode":"69660","city":"Collonges-au-Mont-d'Or","address":"40 Rue de la Plage 69660 Collonges-au-Mont-d'Or","chef":"Paul BOCUSE","url":"https://restaurant.michelin.fr/29tbf1t/paul-bocuse-collonges-au-mont-dor"},{"name":"Mickaël Féval","road":"11 Petite-Rue-St-Jean","zipcode":"13100","city":"Aix-en-Provence","address":"11 Petite-Rue-St-Jean 13100 Aix-en-Provence","chef":"","url":"https://restaurant.michelin.fr/sv592kt5/mickael-feval-aix-en-provence"},{"name":"Fanny Rey & Jonathan Wahid","road":"12, boulevard Mirabeau","zipcode":"13210","city":"SAINT REMY DE PROVENCE","address":"12, boulevard Mirabeau 13210 SAINT REMY DE PROVENCE","chef":"Fanny Rey & Jonathan Wahid","url":"https://restaurant.michelin.fr/389tiwsv/fanny-rey-jonathan-wahid-saint-remy-de-provence"},{"name":"Aux Anges","road":"6 Place Georges Clemenceau","zipcode":"42300","city":"Roanne","address":"6 Place Georges Clemenceau 42300 Roanne","chef":"Marco Viganò","url":"https://restaurant.michelin.fr/3m56yu9/aux-anges-roanne"},{"name":"Auberge de la Mine","road":"le Gué-Plat","zipcode":"61450","city":"La Ferrière-aux-Étangs","address":"le Gué-Plat 61450 La Ferrière-aux-Étangs","chef":"Hubert Nobis","url":"https://restaurant.michelin.fr/29hyxpk/auberge-de-la-mine-gue-plat"},{"name":"Les Genêts","road":"21 bis Rue de l'Océan","zipcode":"85470","city":"Brem-sur-Mer","address":"21 bis Rue de l'Océan 85470 Brem-sur-Mer","chef":"Nicolas Coutand","url":"https://restaurant.michelin.fr/3ws5njk2/les-genets-brem-sur-mer"},{"name":"Étude","road":"14 r. Bouquet-de-Longchamp","zipcode":"75016","city":"Paris","address":"14 r. Bouquet-de-Longchamp 75016 Paris","chef":"Keisuke Yamagishi","url":"https://restaurant.michelin.fr/3g8qf775/etude-paris-16"},{"name":"Le Jardin des Remparts","road":"10 rue Hôtel-Dieu","zipcode":"21200","city":"Beaune","address":"10 rue Hôtel-Dieu 21200 Beaune","chef":"Christophe Bocquillon","url":"https://restaurant.michelin.fr/28u6ql7/le-jardin-des-remparts-beaune"},{"name":"Auberge St-Walfrid","road":"58 r. de Grosbliederstroff","zipcode":"57200","city":"Sarreguemines","address":"58 r. de Grosbliederstroff 57200 Sarreguemines","chef":"Stephan Schneider","url":"https://restaurant.michelin.fr/2ayc9n6/auberge-st-walfrid-sarreguemines"},{"name":"La Vieille Tour","road":"75 r. de la Tour","zipcode":"22190","city":"Plérin","address":"75 r. de la Tour 22190 Plérin","chef":"Nicolas Adam","url":"https://restaurant.michelin.fr/2arxchk/la-vieille-tour-plerin"},{"name":"L'Aromate","road":"2 r. Gustave Deloye","zipcode":"06000","city":"Nice","address":"2 r. Gustave Deloye 06000 Nice","chef":"Mickaël Gracieux","url":"https://restaurant.michelin.fr/2epn29l/laromate-nice"},{"name":"Le 39V","road":"39 Avenue George V","zipcode":"75008","city":"Paris 08","address":"39 Avenue George V 75008 Paris 08","chef":"Frédéric Vardon","url":"https://restaurant.michelin.fr/2fd19do/le-39v-paris-08"},{"name":"Château de Mirambeau","road":"1 Avenue des Comtes Duchatel","zipcode":"17150","city":"Mirambeau","address":"1 Avenue des Comtes Duchatel 17150 Mirambeau","chef":"","url":"https://restaurant.michelin.fr/2c914ee/chateau-de-mirambeau-mirambeau"},{"name":"La Liégeoise","road":"digue de mer","zipcode":"62930","city":"Wimereux","address":"digue de mer 62930 Wimereux","chef":"Benjamin Delpierre","url":"https://restaurant.michelin.fr/2fa1zgi202/la-liegeoise-wimereux"},{"name":"La Table de la Bergerie","road":"La Bergerie","zipcode":"49380","city":"Champ-sur-Layon","address":"La Bergerie 49380 Champ-sur-Layon","chef":"David Guitton","url":"https://restaurant.michelin.fr/i1i7i9b/la-table-de-la-bergerie-le-champ-sur-layon"},{"name":"Le Kaïku","road":"17 r. de la République","zipcode":"64500","city":"Saint-Jean-de-Luz","address":"17 r. de la République 64500 Saint-Jean-de-Luz","chef":"Nicolas Borombo","url":"https://restaurant.michelin.fr/2atmq22/le-kaiku-saint-jean-de-luz"},{"name":"Les Trois Dômes","road":"20 quai Gailleton","zipcode":"69002","city":"Lyon","address":"20 quai Gailleton 69002 Lyon","chef":"","url":"https://restaurant.michelin.fr/29svngf/les-trois-domes-lyon-02"},{"name":"Les Pêcheurs","road":"10 boulevard du Maréchal-Juin","zipcode":"06600","city":"Antibes","address":"10 boulevard du Maréchal-Juin 06600 Antibes","chef":"Nicolas RONDELLI","url":"https://restaurant.michelin.fr/29ol879/les-pecheurs-antibes"},{"name":"Le St-Martin","road":"1 r. du Gén.-Leclerc","zipcode":"25200","city":"Montbéliard","address":"1 r. du Gén.-Leclerc 25200 Montbéliard","chef":"Olivier Prévôt-Carme","url":"https://restaurant.michelin.fr/29zciea/le-st-martin-montbeliard"},{"name":"La Balette","road":"rte de Port-Vendres","zipcode":"66190","city":"Collioure","address":"rte de Port-Vendres 66190 Collioure","chef":"Frederic Bacquie","url":"https://restaurant.michelin.fr/2dlsvt0/la-balette-collioure"},{"name":"Serge Vieira","road":"Château du Couffour","zipcode":"15110","city":"Chaudes-Aigues","address":"Château du Couffour 15110 Chaudes-Aigues","chef":"","url":"https://restaurant.michelin.fr/2ey495p/serge-vieira-chaudes-aigues"},{"name":"Le Pot d'Étain","road":"4 av. de la République","zipcode":"90400","city":"Danjoutin","address":"4 av. de la République 90400 Danjoutin","chef":"Philippe Zeiger","url":"https://restaurant.michelin.fr/28vc6i9/le-pot-detain-danjoutin"},{"name":"Christophe Bacquié","road":"Hotel du Castellet Route des Hauts du Camp","zipcode":"83330","city":"Le Castellet","address":"Hotel du Castellet Route des Hauts du Camp 83330 Le Castellet","chef":"Christophe Bacquié","url":"https://restaurant.michelin.fr/2bmu0gi/christophe-bacquie-le-castellet"},{"name":"Clovis","road":"21 Grand-Rue","zipcode":"06140","city":"Tourrettes-sur-Loup","address":"21 Grand-Rue 06140 Tourrettes-sur-Loup","chef":"Julien Bousseau","url":"https://restaurant.michelin.fr/2evgb1v/clovis-tourrettes-sur-loup"},{"name":"Le George","road":"31 Avenue George V","zipcode":"75008","city":"Paris","address":"31 Avenue George V 75008 Paris","chef":"Simone Zanoni ","url":"https://restaurant.michelin.fr/9q8vl0jf/le-george-paris-08"},{"name":"Py-r","road":"19 descente de la Halle-aux-Poissons","zipcode":"31000","city":"Toulouse","address":"19 descente de la Halle-aux-Poissons 31000 Toulouse","chef":"Pierre Lambinon","url":"https://restaurant.michelin.fr/2fdyj14/py-r-toulouse"},{"name":"La Table du 11","road":"8 rue de la chancellerie","zipcode":"78000","city":"Versailles","address":"8 rue de la chancellerie 78000 Versailles","chef":"Jean-Baptiste Lavergne-Morazzani","url":"https://restaurant.michelin.fr/d4dm7ddr/la-table-du-11-versailles"},{"name":"Pages","road":"4 r. Auguste-Vacquerie","zipcode":"75016","city":"Paris","address":"4 r. Auguste-Vacquerie 75016 Paris","chef":"Ryuji Teshima","url":"https://restaurant.michelin.fr/9idrgh03/pages-paris-16"},{"name":"Les Tablettes de Jean-Louis Nomicos","road":"16 avenue Bugeaud","zipcode":"75116","city":"Paris 16","address":"16 avenue Bugeaud 75116 Paris 16","chef":"Jean-Louis Nomicos","url":"https://restaurant.michelin.fr/2fdwgd3/les-tablettes-de-jean-louis-nomicos-paris-16"},{"name":"L'Orangerie du Château","road":"1 Avenue du Docteur Jean Laigret","zipcode":"41000","city":"Blois","address":"1 Avenue du Docteur Jean Laigret 41000 Blois","chef":"Jean-Marc Molveaux","url":"https://restaurant.michelin.fr/28xeo4n/lorangerie-du-chateau-blois"},{"name":"JY'S","road":"17 r. de la Poissonnerie","zipcode":"68000","city":"Colmar","address":"17 r. de la Poissonnerie 68000 Colmar","chef":"Jean-Yves Schillinger","url":"https://restaurant.michelin.fr/298563e/jys-colmar"},{"name":"Le Chabichou","road":"90 Route des Chenus","zipcode":"73120","city":"Courchevel 1850","address":"90 Route des Chenus 73120 Courchevel 1850","chef":"Michel Rochedy et Stéphane Buron","url":"https://restaurant.michelin.fr/2btao3c/le-chabichou-courchevel-1850"},{"name":"L'Océan","road":"43 bd Thiers","zipcode":"64500","city":"Saint-Jean-de-Luz","address":"43 bd Thiers 64500 Saint-Jean-de-Luz","chef":"","url":"https://restaurant.michelin.fr/szxhgy9t/locean-saint-jean-de-luz"},{"name":"Le 7ème Continent","road":"35 av. Gén. -de-Gaulle","zipcode":"68170","city":"Rixheim","address":"35 av. Gén. -de-Gaulle 68170 Rixheim","chef":"Laurent Haller","url":"https://restaurant.michelin.fr/9tnfzh4/le-7eme-continent-rixheim"},{"name":"Table des Frères Ibarboure","road":"chemin Ttalienea","zipcode":"64210","city":"Bidart","address":"chemin Ttalienea 64210 Bidart","chef":"Xabi et Patrice Ibarboure","url":"https://restaurant.michelin.fr/28x2q9k/table-des-freres-ibarboure-bidart"},{"name":"Baumanière 1850","road":"rte de Bellecôte","zipcode":"73120","city":"Courchevel 1850","address":"rte de Bellecôte 73120 Courchevel 1850","chef":"","url":"https://restaurant.michelin.fr/2f4vonu/baumaniere-1850-courchevel-1850"},{"name":"Les Climats","road":"41 rue de Lille","zipcode":"75007","city":"Paris 07","address":"41 rue de Lille 75007 Paris 07","chef":"Julien Boscus","url":"https://restaurant.michelin.fr/3x7v6dz/les-climats-paris-07"},{"name":"La Table de Franck Putelat","road":"80 chemin des Anglais","zipcode":"11000","city":"Carcassonne","address":"80 chemin des Anglais 11000 Carcassonne","chef":"Mr Franck PUTELAT","url":"https://restaurant.michelin.fr/2e06z2s/la-table-de-franck-putelat-carcassonne"},{"name":"Le Saint-Estève","road":"2250 route cézanne D17","zipcode":"13100","city":"Le Tholonet","address":"2250 route cézanne D17 13100 Le Tholonet","chef":"Mathias Dandine","url":"https://restaurant.michelin.fr/2x1lce26/le-saint-esteve-le-tholonet"},{"name":"Transparence \"La Table de Patrick Fréchin\"","road":"28 r. Stanislas","zipcode":"54000","city":"Nancy","address":"28 r. Stanislas 54000 Nancy","chef":"","url":"https://restaurant.michelin.fr/2jtf0iqj/transparence-la-table-de-patrick-frechin-nancy"},{"name":"Hostellerie de Levernois","road":"Rue du Golf","zipcode":"21200","city":"Levernois","address":"Rue du Golf 21200 Levernois","chef":"","url":"https://restaurant.michelin.fr/28updvu/hostellerie-de-levernois-levernois"},{"name":"Auberge de l'Île Barbe","road":"1 Place Notre-Dame","zipcode":"69009","city":"Lyon 09","address":"1 Place Notre-Dame 69009 Lyon 09","chef":"Jean-Christophe Ansanay-Alex","url":"https://restaurant.michelin.fr/29tj1pj/auberge-de-lile-barbe-lyon-09"},{"name":"Au 14 Février","road":"2 r. du Portail","zipcode":"36100","city":"Saint-Valentin","address":"2 r. du Portail 36100 Saint-Valentin","chef":"","url":"https://restaurant.michelin.fr/2f80e2p/au-14-fevrier-saint-valentin"},{"name":"La Table Saint-Crescent","road":"route de Perpignan","zipcode":"11100","city":"Narbonne","address":"route de Perpignan 11100 Narbonne","chef":"Lionel Giraud","url":"https://restaurant.michelin.fr/2a3kuo9/la-table-saint-crescent-narbonne"},{"name":"Frédéric Doucet","road":"2 avenue de la Libération","zipcode":"71120","city":"Charolles","address":"2 avenue de la Libération 71120 Charolles","chef":"Frédéric Doucet","url":"https://restaurant.michelin.fr/295q5w8/frederic-doucet-charolles"},{"name":"Qui plume la Lune","road":"50 r. Amelot","zipcode":"75011","city":"Paris 11","address":"50 r. Amelot 75011 Paris 11","chef":"Jacky Ribault","url":"https://restaurant.michelin.fr/jh83esx/qui-plume-la-lune-paris-11"},{"name":"Maison Crouzil et Hôtel L'Écrin","road":"20 les Quais","zipcode":"22130","city":"Plancoët","address":"20 les Quais 22130 Plancoët","chef":"","url":"https://restaurant.michelin.fr/2akcwpg8/maison-crouzil-et-hotel-lecrin-plancoet"},{"name":"Passage 53","road":"53 passage des Panoramas","zipcode":"75002","city":"Paris","address":"53 passage des Panoramas 75002 Paris","chef":"Shinichi Sato","url":"https://restaurant.michelin.fr/2ezpxm7/passage-53-paris-02"},{"name":"La Grenouillère","road":"19 r. de la Grenouillère","zipcode":"62170","city":"La Madelaine-sous-Montreuil","address":"19 r. de la Grenouillère 62170 La Madelaine-sous-Montreuil","chef":"Alexandre Gauthier","url":"https://restaurant.michelin.fr/2a0ne3f/la-grenouillere-la-madelaine-sous-montreuil"},{"name":"Laurent","road":"41 av. Gabriel","zipcode":"75008","city":"Paris","address":"41 av. Gabriel 75008 Paris","chef":"","url":"https://restaurant.michelin.fr/2abdvpo/laurent-paris-08"},{"name":"La Table d'Olivier","road":"3 r. St-Ambroise","zipcode":"19100","city":"Brive-la-Gaillarde","address":"3 r. St-Ambroise 19100 Brive-la-Gaillarde","chef":"Pierre Neveu","url":"https://restaurant.michelin.fr/5f24ty3/la-table-dolivier-brive-la-gaillarde"},{"name":"L'Essentiel","road":"8 r. de la Clarté","zipcode":"24000","city":"Périgueux","address":"8 r. de la Clarté 24000 Périgueux","chef":"Eric Vidal","url":"https://restaurant.michelin.fr/2dwdwxo/lessentiel-perigueux"},{"name":"Brikéténia","road":"142 r. de l'Église","zipcode":"64210","city":"Guéthary","address":"142 r. de l'Église 64210 Guéthary","chef":"Martin et David Ibarboure","url":"https://restaurant.michelin.fr/2es4wcd/briketenia-guethary"},{"name":"La Coquerie","road":"1 chemin du Cimetière-Marin","zipcode":"34200","city":"Sète","address":"1 chemin du Cimetière-Marin 34200 Sète","chef":"Anne Majourel","url":"https://restaurant.michelin.fr/9tuayn9/la-coquerie-sete"},{"name":"Le Favre d'Anne","road":"21 bd du Mar.-Foch","zipcode":"49000","city":"Angers","address":"21 bd du Mar.-Foch 49000 Angers","chef":"Pascal Favre d'Anne","url":"https://restaurant.michelin.fr/dekdkvvj/le-favre-danne-angers"},{"name":"Le Camélia","road":"7 quai Georges Clemenceau","zipcode":"78380","city":"Bougival","address":"7 quai Georges Clemenceau 78380 Bougival","chef":"Thierry Conte","url":"https://restaurant.michelin.fr/2agf0d1/le-camelia-bougival"},{"name":"Le Bon Accueil","road":"32 Grande-Rue","zipcode":"25160","city":"Malbuisson","address":"32 Grande-Rue 25160 Malbuisson","chef":"Marc Faivre","url":"https://restaurant.michelin.fr/29v2jed/le-bon-accueil-malbuisson"},{"name":"La Table d'Eugène","road":"18 r. Eugène-Sue","zipcode":"75018","city":"Paris","address":"18 r. Eugène-Sue 75018 Paris","chef":"Geoffroy Maillard","url":"https://restaurant.michelin.fr/2et2alx/la-table-deugene-paris-18"},{"name":"La Rastègue","road":"48 bd du Levant","zipcode":"83230","city":"Bormes-les-Mimosas","address":"48 bd du Levant 83230 Bormes-les-Mimosas","chef":"Jérôme Masson","url":"https://restaurant.michelin.fr/2dfjaik/la-rastegue-bormes-les-mimosas"},{"name":"Miraflores","road":"60 r. Garibaldi","zipcode":"69006","city":"Lyon","address":"60 r. Garibaldi 69006 Lyon","chef":"Carlos Camino","url":"https://restaurant.michelin.fr/2jcivvu3/miraflores-lyon-06"},{"name":"Auberge du Dun","road":"3 rte de Dieppe","zipcode":"76740","city":"Le Bourg-Dun","address":"3 rte de Dieppe 76740 Le Bourg-Dun","chef":"Pierre Chrétien","url":"https://restaurant.michelin.fr/28z3n7r/auberge-du-dun-le-bourg-dun"},{"name":"Auberge du Vert Mont","road":"1318 r. du Mont-Noir","zipcode":"59299","city":"Boeschepe","address":"1318 r. du Mont-Noir 59299 Boeschepe","chef":"Florent Ladeyn","url":"https://restaurant.michelin.fr/13ppe4f4/auberge-du-vert-mont-boeschepe"},{"name":"Le Park 45","road":"45 bd de la Croisette","zipcode":"06400","city":"Cannes","address":"45 bd de la Croisette 06400 Cannes","chef":"","url":"https://restaurant.michelin.fr/2e74el7/le-park-45-cannes"},{"name":"Auberge St-Jean","road":"8 r. du Pont","zipcode":"33420","city":"Saint-Jean-de-Blaignac","address":"8 r. du Pont 33420 Saint-Jean-de-Blaignac","chef":"Thomas L'Hérisson","url":"https://restaurant.michelin.fr/2athka8/auberge-st-jean-saint-jean-de-blaignac"},{"name":"Le Village","road":"3 Grande-Rue","zipcode":"78160","city":"Marly-le-Roi","address":"3 Grande-Rue 78160 Marly-le-Roi","chef":"Tomohiro Uido","url":"https://restaurant.michelin.fr/2ahm97s/le-village-marly-le-roi"},{"name":"Le Bénaton","road":"25 Rue du Faubourg-Bretonnière","zipcode":"21200","city":"BEAUNE","address":"25 Rue du Faubourg-Bretonnière 21200 BEAUNE","chef":"Keishi Sugimura","url":"https://restaurant.michelin.fr/28u9h7z/le-benaton-beaune"},{"name":"Loiseau rive Gauche","road":"5 rue Bourgogne","zipcode":"75007","city":"Paris 07","address":"5 rue Bourgogne 75007 Paris 07","chef":"Maxime Laurenson","url":"https://restaurant.michelin.fr/2aaahmg/loiseau-rive-gauche-paris-07"},{"name":"Ithurria","road":"pl. du Fronton","zipcode":"64250","city":"Ainhoa","address":"pl. du Fronton 64250 Ainhoa","chef":"Xavier Isabal","url":"https://restaurant.michelin.fr/2bbain5/ithurria-ainhoa"},{"name":"Guy Lassausaie","road":"r. de Belle-Sise","zipcode":"69380","city":"Chasselay","address":"r. de Belle-Sise 69380 Chasselay","chef":"","url":"https://restaurant.michelin.fr/295zuzb/guy-lassausaie-chasselay"},{"name":"Le Puits St-Jacques","road":"av. Victor-Capoul","zipcode":"32600","city":"Pujaudran","address":"av. Victor-Capoul 32600 Pujaudran","chef":"Bernard Bach","url":"https://restaurant.michelin.fr/29nnrkd/le-puits-st-jacques-pujaudran"},{"name":"Le Foch","road":"37 bd Foch","zipcode":"51100","city":"Reims","address":"37 bd Foch 51100 Reims","chef":"Jacky Louazé","url":"https://restaurant.michelin.fr/2anjd1l/le-foch-reims"},{"name":"Auguste","road":"54 r. Bourgogne","zipcode":"75007","city":"Paris 07","address":"54 r. Bourgogne 75007 Paris 07","chef":"Gaël Orieux","url":"https://restaurant.michelin.fr/2dof8zp/auguste-paris-07"},{"name":"L'Auberge Basque","road":"quartier Helbarron","zipcode":"64310","city":"Saint-Pée-sur-Nivelle","address":"quartier Helbarron 64310 Saint-Pée-sur-Nivelle","chef":"Cédric Béchade","url":"https://restaurant.michelin.fr/2efx4u4/lauberge-basque-saint-pee-sur-nivelle"},{"name":"Dyades au Domaine des Étangs","road":"Les Etangs","zipcode":"16310","city":"MASSIGNAC","address":"Les Etangs 16310 MASSIGNAC","chef":"","url":"https://restaurant.michelin.fr/2f0stuh/dyades-au-domaine-des-etangs-massignac"},{"name":"Restaurant de Lauzun","road":"3 bd de l'Esplanade","zipcode":"34150","city":"Gignac","address":"3 bd de l'Esplanade 34150 Gignac","chef":"Matthieu de Lauzun","url":"https://restaurant.michelin.fr/29k1mm1/restaurant-de-lauzun-gignac"},{"name":"Pierre Gagnaire","road":"6 Rue Balzac","zipcode":"75008","city":"Paris 08","address":"6 Rue Balzac 75008 Paris 08","chef":"Pierre GAGNAIRE","url":"https://restaurant.michelin.fr/2abhfav/pierre-gagnaire-paris-08"},{"name":"Alan Geaam","road":"19 Rue Lauriston","zipcode":"75016","city":"Paris","address":"19 Rue Lauriston 75016 Paris","chef":"Alan Geaam","url":"https://restaurant.michelin.fr/3045466/alan-geaam-paris-16"},{"name":"Loiseau des Vignes","road":"31 Rue Jean Francois Maufoux","zipcode":"21200","city":"Beaune","address":"31 Rue Jean Francois Maufoux 21200 Beaune","chef":"Haddouche Mourad","url":"https://restaurant.michelin.fr/2ef8rpt/loiseau-des-vignes-beaune"},{"name":"Le Moulin de l'Abbaye","road":"1 avenue Pierre de Bourdeilles","zipcode":"24310","city":"BRANTOME","address":"1 avenue Pierre de Bourdeilles 24310 BRANTOME","chef":"LECOIN LOIC","url":"https://restaurant.michelin.fr/2bk4rlv/le-moulin-de-labbaye-brantome-en-perigord"},{"name":"Aux Terrasses","road":"18 av. du 23-Janvier","zipcode":"71700","city":"Tournus","address":"18 av. du 23-Janvier 71700 Tournus","chef":"Jean-Michel Carrette","url":"https://restaurant.michelin.fr/2b44str/aux-terrasses-tournus"},{"name":"La Marande","road":"lieu-dit Mirande","zipcode":"71260","city":"Montbellet","address":"lieu-dit Mirande 71260 Montbellet","chef":"Philippe Michel","url":"https://restaurant.michelin.fr/2dcnkds/la-marande-montbellet"},{"name":"Château de Courban","road":"7 rue du Lavoir","zipcode":"21520","city":"Courban","address":"7 rue du Lavoir 21520 Courban","chef":"Takashi Kinoshita","url":"https://restaurant.michelin.fr/2emcabb/chateau-de-courban-courban"},{"name":"Hostellerie du Rosenmeer","road":"45 avenue de la Gare","zipcode":"67560","city":"ROSHEIM","address":"45 avenue de la Gare 67560 ROSHEIM","chef":"Hubert Maetz","url":"https://restaurant.michelin.fr/2cnfm96/hostellerie-du-rosenmeer-rosheim"},{"name":"Nakatani","road":"27 Rue Pierre Leroux","zipcode":"75007","city":"PARIS","address":"27 Rue Pierre Leroux 75007 PARIS","chef":"Shinsuke Nakatani","url":"https://restaurant.michelin.fr/3x81832/nakatani-paris-07"},{"name":"L'Atelier du Peintre","road":"1 Rue Schongauer","zipcode":"68000","city":"Colmar","address":"1 Rue Schongauer 68000 Colmar","chef":"Loïc Lefebvre","url":"https://restaurant.michelin.fr/2ewn3lj/latelier-du-peintre-colmar"},{"name":"Chez Michèle","road":"57 rue Principale","zipcode":"57810","city":"Languimberg","address":"57 rue Principale 57810 Languimberg","chef":"Bruno Poiré","url":"https://restaurant.michelin.fr/29pia6z/chez-michele-languimberg"},{"name":"La Gloire","road":"74 av. du Gén.-de-Gaulle","zipcode":"45200","city":"Montargis","address":"74 av. du Gén.-de-Gaulle 45200 Montargis","chef":"Jean-Claude Martin","url":"https://restaurant.michelin.fr/29yz8b5/la-gloire-montargis"},{"name":"Rackham","road":"27 pl. Lacaze Duthiers rčs de l'église","zipcode":"29680","city":"ROSCOFF","address":"27 pl. Lacaze Duthiers rčs de l'église 29680 ROSCOFF","chef":"Arthur Péran","url":"https://restaurant.michelin.fr/2cndbvx/rackham-roscoff"},{"name":"La Bastide de Capelongue","road":"Chemin des Cabanes","zipcode":"84480","city":"Bonnieux","address":"Chemin des Cabanes 84480 Bonnieux","chef":"Édouard Loubet","url":"https://restaurant.michelin.fr/2bj1jms/la-bastide-de-capelongue-bonnieux"},{"name":"Le Cerisier","road":"3 rue de la Gare","zipcode":"62840","city":"LAVENTIE","address":"3 rue de la Gare 62840 LAVENTIE","chef":"Eric Delerue","url":"https://restaurant.michelin.fr/29qd0ox/le-cerisier-laventie"},{"name":"1920","road":"373 chemin des follières","zipcode":"74120","city":"Megève","address":"373 chemin des follières 74120 Megève","chef":"Julien Gatillon","url":"https://restaurant.michelin.fr/3409276/1920-megeve"},{"name":"La Vague d'Or","road":"Plage de Bouillabaisse","zipcode":"83990","city":"Saint-Tropez","address":"Plage de Bouillabaisse 83990 Saint-Tropez","chef":"Arnaud Donckele","url":"https://restaurant.michelin.fr/2csqkr7/la-vague-dor-saint-tropez"},{"name":"Umami","road":"8 r. des Dentelles","zipcode":"67000","city":"Strasbourg","address":"8 r. des Dentelles 67000 Strasbourg","chef":"René Fieger","url":"https://restaurant.michelin.fr/2ei9xex/umami-strasbourg"},{"name":"Le Musigny","road":"90 Avenue de Liege","zipcode":"59300","city":"Valenciennes","address":"90 Avenue de Liege 59300 Valenciennes","chef":"Emmanuel Hernandez","url":"https://restaurant.michelin.fr/3yjthyc/le-musigny-valenciennes"},{"name":"Michel Sarran","road":"21 bd A.-Duportal","zipcode":"31000","city":"Toulouse","address":"21 bd A.-Duportal 31000 Toulouse","chef":"","url":"https://restaurant.michelin.fr/2b380z8/michel-sarran-toulouse"},{"name":"Le France","road":"8 place Cupillard","zipcode":"25130","city":"VILLERS-LE-LAC","address":"8 place Cupillard 25130 VILLERS-LE-LAC","chef":"Hugues Droz","url":"https://restaurant.michelin.fr/2d32mvv/le-france-villers-le-lac"},{"name":"La Cachette","road":"Rue des Cévennes","zipcode":"26000","city":"Valence","address":"Rue des Cévennes 26000 Valence","chef":"Masashi Ijichi","url":"https://restaurant.michelin.fr/2dyaa0w/la-cachette-valence"},{"name":"Relais Louis XIII","road":"8 Rue des Grands Augustins","zipcode":"75006","city":"Paris","address":"8 Rue des Grands Augustins 75006 Paris","chef":"Manuel Martinez","url":"https://restaurant.michelin.fr/2a92anu/relais-louis-xiii-paris-06"},{"name":"Le Bec au Cauchois","road":"22 Rue André Fiquet","zipcode":"76540","city":"Valmont","address":"22 Rue André Fiquet 76540 Valmont","chef":"Pierre Caillet","url":"https://restaurant.michelin.fr/2b6gbtl/le-bec-au-cauchois-valmont"},{"name":"Le Pergolèse","road":"40, Rue Pergolèse","zipcode":"75016","city":"Paris","address":"40, Rue Pergolèse 75016 Paris","chef":"Stéphane Gaborieau","url":"https://restaurant.michelin.fr/2aeinde/le-pergolese-paris-16"},{"name":"SaQuaNa","road":"22 pl. Hamelin","zipcode":"14600","city":"Honfleur","address":"22 pl. Hamelin 14600 Honfleur","chef":"Alexandre Bourdas","url":"https://restaurant.michelin.fr/2e11xi8/saquana-honfleur"},{"name":"Le Petit Nice","road":"Anse de Maldormé - Corniche J. F. Kennedy","zipcode":"13007","city":"Marseille 07","address":"Anse de Maldormé - Corniche J. F. Kennedy 13007 Marseille 07","chef":"Gérald Passédat","url":"https://restaurant.michelin.fr/2c76rmd/le-petit-nice-marseille-07"},{"name":"Le Bistrot de Lagarde","road":"rte d'Apt","zipcode":"84400","city":"Lagarde-d'Apt","address":"rte d'Apt 84400 Lagarde-d'Apt","chef":"Lloyd Tropeano","url":"https://restaurant.michelin.fr/jfxt32k/le-bistrot-de-lagarde-lagarde-dapt"},{"name":"L'Aquarelle","road":"71 A rte du Montil","zipcode":"17920","city":"Breuillet","address":"71 A rte du Montil 17920 Breuillet","chef":"Xavier Taffart","url":"https://restaurant.michelin.fr/2dk9wkt/laquarelle-breuillet"},{"name":"Les Chênes Verts","road":"rte de Villecroze","zipcode":"83690","city":"Tourtour","address":"rte de Villecroze 83690 Tourtour","chef":"","url":"https://restaurant.michelin.fr/2b4ne7u/les-chenes-verts-tourtour"},{"name":"Le Kléber","road":"6 r. A. -Dumont","zipcode":"26400","city":"Crest","address":"6 r. A. -Dumont 26400 Crest","chef":"Sébastien Bonnet","url":"https://restaurant.michelin.fr/29bkalt/le-kleber-crest"},{"name":"La Promenade","road":"2 promenade Jean-Jaurès","zipcode":"31590","city":"Verfeil","address":"2 promenade Jean-Jaurès 31590 Verfeil","chef":"Nicolas Thomas","url":"https://restaurant.michelin.fr/n3jledr/la-promenade-verfeil"},{"name":"La Chaumière","road":"346 av. du Mar. -Juin","zipcode":"39100","city":"Dole","address":"346 av. du Mar. -Juin 39100 Dole","chef":"Joël Césari","url":"https://restaurant.michelin.fr/2buz227/la-chaumiere-dole"},{"name":"En Marge","road":"1204 rte de la Croix-Falgarde","zipcode":"31320","city":"AUREVILLE","address":"1204 rte de la Croix-Falgarde 31320 AUREVILLE","chef":"Frank Renimel","url":"https://restaurant.michelin.fr/q8lel2a/en-marge-aureville"},{"name":"La Table de Chaintré","road":"72 pl. du Luminaire","zipcode":"71570","city":"Chaintré","address":"72 pl. du Luminaire 71570 Chaintré","chef":"Sébastien Grospellier","url":"https://restaurant.michelin.fr/294fsc5/la-table-de-chaintre-chaintre"},{"name":"Avel Vor","road":"25 r. de Locmalo","zipcode":"56290","city":"Port-Louis","address":"25 r. de Locmalo 56290 Port-Louis","chef":"Patrice Gahinet","url":"https://restaurant.michelin.fr/2da93ps/avel-vor-port-louis"},{"name":"La Table","road":"32 Rue de la Barre","zipcode":"59000","city":"Lille","address":"32 Rue de la Barre 59000 Lille","chef":"Thibaut GAMBA","url":"https://restaurant.michelin.fr/ua271jkd/la-table-lille"},{"name":"L'Atelier de Joël Robuchon - Étoile","road":"133 av. des Champs-Élysées","zipcode":"75008","city":"Paris","address":"133 av. des Champs-Élysées 75008 Paris","chef":"","url":"https://restaurant.michelin.fr/2feca5y/latelier-de-joel-robuchon-etoile-paris-08"},{"name":"La Tour","road":"31 Nouvelle-Place","zipcode":"18300","city":"Sancerre","address":"31 Nouvelle-Place 18300 Sancerre","chef":"Baptiste Fournier","url":"https://restaurant.michelin.fr/2axydtb/la-tour-sancerre"},{"name":"Michel Trama","road":"52 r. Royale","zipcode":"47270","city":"Puymirol","address":"52 r. Royale 47270 Puymirol","chef":"","url":"https://restaurant.michelin.fr/2ckuncq/michel-trama-puymirol"},{"name":"Le Puits du Trésor","road":"21 rte des Quatre-Châteaux","zipcode":"11600","city":"Lastours","address":"21 rte des Quatre-Châteaux 11600 Lastours","chef":"Jean-Marc Boyer","url":"https://restaurant.michelin.fr/29pxfvs/le-puits-du-tresor-lastours"},{"name":"Copenhague","road":"142 AVENUE DES CHAMPS ELYSEES","zipcode":"75008","city":"PARIS","address":"142 AVENUE DES CHAMPS ELYSEES 75008 PARIS","chef":"Andreas Møller","url":"https://restaurant.michelin.fr/2916876/copenhague-paris-08"},{"name":"Ze Kitchen Galerie","road":"4 r. des Grands-Augustins","zipcode":"75006","city":"Paris","address":"4 r. des Grands-Augustins 75006 Paris","chef":"William Ledeuil","url":"https://restaurant.michelin.fr/2a9xcsf/ze-kitchen-galerie-paris-06"},{"name":"La Matelote","road":"80 Boulevard Ste Beuve","zipcode":"62200","city":"BOULOGNE-SUR-MER","address":"80 Boulevard Ste Beuve 62200 BOULOGNE-SUR-MER","chef":"Tony Lestienne","url":"https://restaurant.michelin.fr/28yvb9u/la-matelote-boulogne-sur-mer"},{"name":"Terre-Mer","road":"16 r. du Jeu-de-Paume","zipcode":"56400","city":"Auray","address":"16 r. du Jeu-de-Paume 56400 Auray","chef":"Anthony Jéhanno","url":"https://restaurant.michelin.fr/2f8kr60/terre-mer-auray"},{"name":"La Petite Maison de Cucuron","road":"pl. de l'Étang","zipcode":"84160","city":"Cucuron","address":"pl. de l'Étang 84160 Cucuron","chef":"Eric Sapet","url":"https://restaurant.michelin.fr/29c2o3y/la-petite-maison-de-cucuron-cucuron"},{"name":"La Grignotière","road":"6 Rue Jean Jaures","zipcode":"59590","city":"Raismes","address":"6 Rue Jean Jaures 59590 Raismes","chef":"Pascal Coulon","url":"https://restaurant.michelin.fr/3tkmico/la-grignotiere-raismes"},{"name":"En Pleine Nature","road":"6 pl. de la Mairie","zipcode":"31130","city":"Fonsegrives","address":"6 pl. de la Mairie 31130 Fonsegrives","chef":"Sylvain Joffre","url":"https://restaurant.michelin.fr/s5y0mmq/en-pleine-nature-fonsegrives"},{"name":"L'Atelier de Joël Robuchon - St-Germain","road":"5 r. de Montalembert","zipcode":"75007","city":"Paris","address":"5 r. de Montalembert 75007 Paris","chef":"","url":"https://restaurant.michelin.fr/2dduyu5/latelier-de-joel-robuchon-st-germain-paris-07"},{"name":"Au Déjeuner de Sousceyrac","road":"r. Pierre-Benoit","zipcode":"46190","city":"Sousceyrac","address":"r. Pierre-Benoit 46190 Sousceyrac","chef":"Patrick Lagnès","url":"https://restaurant.michelin.fr/2b0i0m7/au-dejeuner-de-sousceyrac-sousceyrac-en-quercy"},{"name":"La Table Breizh Café","road":"7 quai Thomas","zipcode":"35260","city":"Cancale","address":"7 quai Thomas 35260 Cancale","chef":"Fumio KUDAKA","url":"https://restaurant.michelin.fr/2f8ln9w/la-table-breizh-cafe-cancale"},{"name":"Stéphane Tournié - Les Jardins de l'Opéra","road":"1 place du Capitole","zipcode":"31000","city":"Toulouse","address":"1 place du Capitole 31000 Toulouse","chef":"Stéphane Tournié","url":"https://restaurant.michelin.fr/2b3631b/stephane-tournie-les-jardins-de-lopera-toulouse"},{"name":"Meurin","road":"Rue de Lillers","zipcode":"62350","city":"Busnes","address":"Rue de Lillers 62350 Busnes","chef":"Marc Meurin","url":"https://restaurant.michelin.fr/2dyfstx/meurin-busnes"},{"name":"Le Chiquito","road":"3 r. de l'Oise, La Bonneville","zipcode":"95540","city":"Méry-sur-Oise","address":"3 r. de l'Oise, La Bonneville 95540 Méry-sur-Oise","chef":"Alain Mihura","url":"https://restaurant.michelin.fr/2ago3w6/le-chiquito-mery-sur-oise"},{"name":"Maison Prévôt","road":"353 av. de Verdun","zipcode":"84300","city":"Cavaillon","address":"353 av. de Verdun 84300 Cavaillon","chef":"Jean-Jacques Prévôt","url":"https://restaurant.michelin.fr/2947j86/maison-prevot-cavaillon"},{"name":"Mariottat","road":"25 r. L.-Vivent","zipcode":"47000","city":"Agen","address":"25 r. L.-Vivent 47000 Agen","chef":"Éric Mariottat","url":"https://restaurant.michelin.fr/28n68fe/mariottat-agen"},{"name":"Le Gambetta","road":"12 r. Gambetta","zipcode":"49400","city":"Saumur","address":"12 r. Gambetta 49400 Saumur","chef":"Mickael Pihours","url":"https://restaurant.michelin.fr/2ayqw5m/le-gambetta-saumur"},{"name":"La Table des Blot - Auberge du Château","road":"1 Grande-Rue","zipcode":"78720","city":"Dampierre-en-Yvelines","address":"1 Grande-Rue 78720 Dampierre-en-Yvelines","chef":"Christophe Blot","url":"https://restaurant.michelin.fr/2agz71j/la-table-des-blot-auberge-du-chateau-dampierre-en-yvelines"},{"name":"Cayola","road":"76 promenade de Cayola","zipcode":"85180","city":"Talmont-Saint-Hilaire","address":"76 promenade de Cayola 85180 Talmont-Saint-Hilaire","chef":"","url":"https://restaurant.michelin.fr/2arajo6/cayola-bois-de-saint-jean"},{"name":"La Closerie","road":"bd des Platanes","zipcode":"84240","city":"Ansouis","address":"bd des Platanes 84240 Ansouis","chef":"Olivier Alemany","url":"https://restaurant.michelin.fr/2eebgpo/la-closerie-ansouis"},{"name":"Le Lièvre Gourmand","road":"28 quai du Châtelet","zipcode":"45000","city":"Orléans","address":"28 quai du Châtelet 45000 Orléans","chef":"Tristan Robreau","url":"https://restaurant.michelin.fr/2f48mjv/le-lievre-gourmand-orleans"},{"name":"Meulien","road":"1 bis av. des Alpes","zipcode":"71700","city":"Tournus","address":"1 bis av. des Alpes 71700 Tournus","chef":"Valéry Meulien","url":"https://restaurant.michelin.fr/2dtylsa/meulien-tournus"},{"name":"Les Prés d'Eugénie - Michel Guérard","road":"pl. de l'Impératrice","zipcode":"40320","city":"Eugénie-les-Bains","address":"pl. de l'Impératrice 40320 Eugénie-les-Bains","chef":"Michel Guérard","url":"https://restaurant.michelin.fr/29g9pvw/les-pres-deugenie-michel-guerard-eugenie-les-bains"},{"name":"Les Jardins de l'Espadon","road":"15 place Vendôme","zipcode":"75001","city":"Paris","address":"15 place Vendôme 75001 Paris","chef":"Nicolas Sale","url":"https://restaurant.michelin.fr/2a7bw8d/les-jardins-de-lespadon-paris-01"},{"name":"Maison Lameloise","road":"36 pl. d'Armes","zipcode":"71150","city":"Chagny","address":"36 pl. d'Armes 71150 Chagny","chef":"Eric Pras","url":"https://restaurant.michelin.fr/2bnef6m/maison-lameloise-chagny"},{"name":"La Bergerie","road":"D999","zipcode":"63490","city":"Sarpoil","address":"D999 63490 Sarpoil","chef":"Cyrille Zen","url":"https://restaurant.michelin.fr/29nxch5/la-bergerie-sarpoil"},{"name":"Penati al Baretto","road":"9 rue Balzac","zipcode":"75008","city":"Paris 08","address":"9 rue Balzac 75008 Paris 08","chef":"Alberico Penati","url":"https://restaurant.michelin.fr/9oo4cel/penati-al-baretto-paris-08"},{"name":"Roscanvec","road":"17 r. des Halles","zipcode":"56000","city":"Vannes","address":"17 r. des Halles 56000 Vannes","chef":"Thierry Seychelles","url":"https://restaurant.michelin.fr/2b6s3ty/roscanvec-vannes"},{"name":"Le Mas du Langoustier","road":"","zipcode":"83400","city":"Hyères","address":" 83400 Hyères","chef":"","url":"https://restaurant.michelin.fr/2c1rglq/le-mas-du-langoustier-hyeres"},{"name":"Atmosphères","road":"618 Route des Tournelles","zipcode":"73370","city":"Le Bourget-du-Lac","address":"618 Route des Tournelles 73370 Le Bourget-du-Lac","chef":"Alain Périllat-Mercerot","url":"https://restaurant.michelin.fr/28zmco9/atmospheres-le-bourget-du-lac"},{"name":"Au Souper Fin","road":"1 rte de Clères","zipcode":"76690","city":"Frichemesnil","address":"1 rte de Clères 76690 Frichemesnil","chef":"Eric Buisset","url":"https://restaurant.michelin.fr/29783wk/au-souper-fin-frichemesnil"},{"name":"La Galinette","road":"23 r. Jean Payra","zipcode":"66000","city":"Perpignan","address":"23 r. Jean Payra 66000 Perpignan","chef":"Christophe Comes","url":"https://restaurant.michelin.fr/2ajskia/la-galinette-perpignan"},{"name":"Ar Men Du","road":"47 rue des îles","zipcode":"29920","city":"Névez","address":"47 rue des îles 29920 Névez","chef":"Philippe Emanuelli","url":"https://restaurant.michelin.fr/2dgxug2/ar-men-du-nevez"},{"name":"Le Grand Véfour","road":"17 rue de Beaujolais","zipcode":"75001","city":"Paris","address":"17 rue de Beaujolais 75001 Paris","chef":"Guy Martin","url":"https://restaurant.michelin.fr/2a7edmf/le-grand-vefour-paris-01"},{"name":"Auberge de Clochemerle","road":"Rue Gabriel-Chevallier","zipcode":"69460","city":"VAUX-EN-BEAUJOLAIS","address":"Rue Gabriel-Chevallier 69460 VAUX-EN-BEAUJOLAIS","chef":"Romain Barthe","url":"https://restaurant.michelin.fr/2dckc0s/auberge-de-clochemerle-vaux-en-beaujolais"},{"name":"L'Amphitryon","road":"chemin de Gramont","zipcode":"31770","city":"Colomiers","address":"chemin de Gramont 31770 Colomiers","chef":"Yannick Delpech","url":"https://restaurant.michelin.fr/2b3pf5k/lamphitryon-colomiers"},{"name":"La Maison dans le Parc","road":"3 r. Ste-Catherine","zipcode":"54000","city":"Nancy","address":"3 r. Ste-Catherine 54000 Nancy","chef":"Françoise Mutel","url":"https://restaurant.michelin.fr/2elnjes/la-maison-dans-le-parc-nancy"},{"name":"Septime","road":"80 r. de Charonne","zipcode":"75011","city":"Paris","address":"80 r. de Charonne 75011 Paris","chef":"Bertrand Grébaut","url":"https://restaurant.michelin.fr/3xrgyvn/septime-paris-11"},{"name":"Pertica","road":"15 pl. de la République","zipcode":"41100","city":"Vendôme","address":"15 pl. de la République 41100 Vendôme","chef":"Guillaume Foucault","url":"https://restaurant.michelin.fr/3u9bmm3c/pertica-vendome"},{"name":"La Ribaudière","road":"2 pl. du Port","zipcode":"16200","city":"Bourg-Charente","address":"2 pl. du Port 16200 Bourg-Charente","chef":"Thierry Verrat","url":"https://restaurant.michelin.fr/29o99va/la-ribaudiere-bourg-charente"},{"name":"Le Jardin des Plumes","road":"1 Rue du Milieu","zipcode":"27620","city":"Giverny","address":"1 Rue du Milieu 27620 Giverny","chef":"Albert Riera pour Eric Guerin","url":"https://restaurant.michelin.fr/omm63qr/le-jardin-des-plumes-giverny"},{"name":"L'Atelier de Jean-Luc Rabanel","road":"7 r. des Carmes","zipcode":"13200","city":"Arles","address":"7 r. des Carmes 13200 Arles","chef":"Jean-Luc Rabanel","url":"https://restaurant.michelin.fr/2e06dui/latelier-de-jean-luc-rabanel-arles"},{"name":"La Palmeraie","road":"81 Boulevard de Gigaro","zipcode":"83420","city":"La Croix-Valmer","address":"81 Boulevard de Gigaro 83420 La Croix-Valmer","chef":"Jimmy Coutel","url":"https://restaurant.michelin.fr/2btuhm0/la-palmeraie-la-croix-valmer"},{"name":"Le 1947","road":"Cheval Blanc Courchevel - Le Jardin Alpin","zipcode":"73120","city":"Courchevel 1850","address":"Cheval Blanc Courchevel - Le Jardin Alpin 73120 Courchevel 1850","chef":"Yannick Alléno","url":"https://restaurant.michelin.fr/2eac1q1/le-1947-courchevel-1850"},{"name":"Épicure","road":"112 r. Fg St-Honoré","zipcode":"75008","city":"Paris 08","address":"112 r. Fg St-Honoré 75008 Paris 08","chef":"Eric Frechon","url":"https://restaurant.michelin.fr/2ab8pfp/epicure-paris-08"},{"name":"Louison","road":"2750 route de la cride","zipcode":"13610","city":"Le Puy-Sainte-Réparade","address":"2750 route de la cride 13610 Le Puy-Sainte-Réparade","chef":"Gérald Passedat","url":"https://restaurant.michelin.fr/3068881/louison-le-puy-sainte-reparade"},{"name":"Fontevraud Le Restaurant","road":"38 rue St-Jean-de-l'Habit","zipcode":"49590","city":"FONTEVRAUD-L'ABBAYE","address":"38 rue St-Jean-de-l'Habit 49590 FONTEVRAUD-L'ABBAYE","chef":"Thibaut Ruggeri","url":"https://restaurant.michelin.fr/9pbvgq6a/fontevraud-le-restaurant-fontevraud-labbaye"},{"name":"La Réserve Rimbaud","road":"820 Avenue de Saint-Maur","zipcode":"34000","city":"Montpellier","address":"820 Avenue de Saint-Maur 34000 Montpellier","chef":"Charles Fontes","url":"https://restaurant.michelin.fr/2d8d9p1/la-reserve-rimbaud-montpellier"},{"name":"La Table de Manville","road":"Domaine de Manville - D27","zipcode":"13520","city":"Les Baux-de-Provence","address":"Domaine de Manville - D27 13520 Les Baux-de-Provence","chef":"Matthieu Dupuis-Baumal","url":"https://restaurant.michelin.fr/9wstvf9t/la-table-de-manville-les-baux-de-provence"},{"name":"Auberge du Cellier","road":"1 Rue de Sainte-Eugénie","zipcode":"66720","city":"Montner","address":"1 Rue de Sainte-Eugénie 66720 Montner","chef":"Pierre-Louis Marin","url":"https://restaurant.michelin.fr/2a02pjj/auberge-du-cellier-montner"},{"name":"Hexagone","road":"85 Avenue Kléber","zipcode":"75016","city":"Paris","address":"85 Avenue Kléber 75016 Paris","chef":"Mathieu Pacaud","url":"https://restaurant.michelin.fr/9yw7wqd3/hexagone-paris-16"},{"name":"Auberge des Saints Pères","road":"212 av. de Nonneville","zipcode":"93600","city":"Aulnay-sous-Bois","address":"212 av. de Nonneville 93600 Aulnay-sous-Bois","chef":"Jean-Claude Cahagnet","url":"https://restaurant.michelin.fr/2aga7gz/auberge-des-saints-peres-aulnay-sous-bois"},{"name":"Le Gindreau","road":"D5","zipcode":"46150","city":"Saint-Médard","address":"D5 46150 Saint-Médard","chef":"Pascal Bardet","url":"https://restaurant.michelin.fr/2avrk5m/le-gindreau-saint-medard"},{"name":"Le Vieux Logis","road":"Le Bourg","zipcode":"24510","city":"Trémolat","address":"Le Bourg 24510 Trémolat","chef":"ARNOULD Vincent","url":"https://restaurant.michelin.fr/2cz3yz2/le-vieux-logis-tremolat"},{"name":"Elsa","road":"Monte-Carlo Beach - Avenue Princesse Grace","zipcode":"06190","city":"Roquebrune Cap-Martin","address":"Monte-Carlo Beach - Avenue Princesse Grace 06190 Roquebrune Cap-Martin","chef":"Paolo Sari","url":"https://restaurant.michelin.fr/9p2kj2b/elsa-cap-martin"},{"name":"Le Grand Bleu","road":"43 av. de la Gare","zipcode":"24200","city":"Sarlat-la-Canéda","address":"43 av. de la Gare 24200 Sarlat-la-Canéda","chef":"Maxime Lebrun","url":"https://restaurant.michelin.fr/2d6bc3s/le-grand-bleu-sarlat-la-caneda"},{"name":"Auberge Grand'Maison","road":"1 r. Léon-le-Cerf","zipcode":"22530","city":"Mûr-de-Bretagne","address":"1 r. Léon-le-Cerf 22530 Mûr-de-Bretagne","chef":"Christophe Le Fur","url":"https://restaurant.michelin.fr/2a2flya/auberge-grandmaison-mur-de-bretagne"},{"name":"La Lorraine","road":"80 rue Principale","zipcode":"57330","city":"Zoufftgen","address":"80 rue Principale 57330 Zoufftgen","chef":"Lucien Keff","url":"https://restaurant.michelin.fr/2bavyqh/la-lorraine-zoufftgen"},{"name":"Thierry Drapeau","road":"La Chabotterie","zipcode":"85260","city":"Saint-Sulpice-le-Verdon","address":"La Chabotterie 85260 Saint-Sulpice-le-Verdon","chef":"THIERRY DRAPEAU","url":"https://restaurant.michelin.fr/2dnrb62/thierry-drapeau-saint-sulpice-le-verdon"},{"name":"Le Pré - Xavier Beaudiment","road":"3 Route de la Baraque","zipcode":"63830","city":"Durtol","address":"3 Route de la Baraque 63830 Durtol","chef":"BEAUDIMENT Xavier","url":"https://restaurant.michelin.fr/2ev16nl/le-pre-xavier-beaudiment-durtol"},{"name":"Assa","road":"189 Quai Ulysse Besnard","zipcode":"41000","city":"Blois","address":"189 Quai Ulysse Besnard 41000 Blois","chef":"Fumiko et Anthony Maubert","url":"https://restaurant.michelin.fr/3m0pjn8/assa-blois"},{"name":"Château Cordeillan-Bages","road":"route des chateaux","zipcode":"33250","city":"Pauillac","address":"route des chateaux 33250 Pauillac","chef":"Julien Lefebvre","url":"https://restaurant.michelin.fr/2chq5p0/chateau-cordeillan-bages-pauillac"},{"name":"La Côte Saint-Jacques","road":"14 faubourg de Paris","zipcode":"89300","city":"Joigny","address":"14 faubourg de Paris 89300 Joigny","chef":"Jean-Michel Lorain","url":"https://restaurant.michelin.fr/2c2ma30/la-cote-saint-jacques-joigny"},{"name":"Radio","road":"43 av. P. et M.-Curie","zipcode":"63400","city":"Chamalières","address":"43 av. P. et M.-Curie 63400 Chamalières","chef":"Wilfrid CHAPLAIN ","url":"https://restaurant.michelin.fr/2bqajf6/radio-chamalieres"},{"name":"Le Georges","road":"22 pl. des Épars","zipcode":"28000","city":"CHARTRES","address":"22 pl. des Épars 28000 CHARTRES","chef":"Nicolas Mendès","url":"https://restaurant.michelin.fr/2boyz17/le-georges-chartres"},{"name":"Maison Decoret","road":"15 rue du Parc","zipcode":"03200","city":"Vichy","address":"15 rue du Parc 03200 Vichy","chef":"Jacques Decoret","url":"https://restaurant.michelin.fr/2b7zqic/maison-decoret-vichy"},{"name":"Guy Savoy","road":"Monnaie de Paris11 Quai de Conti","zipcode":"75006","city":"Paris","address":"Monnaie de Paris11 Quai de Conti 75006 Paris","chef":"Guy SAVOY","url":"https://restaurant.michelin.fr/2afciv4/guy-savoy-paris-06"},{"name":"Lucas Carton","road":"9 pl. de la Madeleine","zipcode":"75008","city":"Paris 08","address":"9 pl. de la Madeleine 75008 Paris 08","chef":"Julien Dumas","url":"https://restaurant.michelin.fr/2abav0l/lucas-carton-paris-08"},{"name":"L'Arcane","road":"39 Rue Lamarck","zipcode":"75018","city":"Paris","address":"39 Rue Lamarck 75018 Paris","chef":"Laurent Magnin","url":"https://restaurant.michelin.fr/vx40rloc/larcane-paris-18"},{"name":"Le Haut-Allier","road":"LE PONT D ALLEYRAS","zipcode":"43580","city":"Alleyras","address":"LE PONT D ALLEYRAS 43580 Alleyras","chef":"Philippe Brun","url":"https://restaurant.michelin.fr/2bc2prd/le-haut-allier-le-pont-dalleyras"},{"name":"Georges Blanc","road":"pl. du Marché","zipcode":"01540","city":"Vonnas","address":"pl. du Marché 01540 Vonnas","chef":"Georges BLANC","url":"https://restaurant.michelin.fr/2d3ergs/georges-blanc-vonnas"},{"name":"Auberge de la Tour","road":"Place de la Fontaine","zipcode":"15220","city":"MARCOLES","address":"Place de la Fontaine 15220 MARCOLES","chef":"Renaud Darmanin","url":"https://restaurant.michelin.fr/aewyhv0/auberge-de-la-tour-marcoles"},{"name":"Le Cercle","road":"44 bd Lahitolle","zipcode":"18000","city":"Bourges","address":"44 bd Lahitolle 18000 Bourges","chef":"Pascal Chaupitre et Christophe Lot","url":"https://restaurant.michelin.fr/9trxkaz/le-cercle-bourges"},{"name":"L'Amaryllis","road":"chemin de Martorey","zipcode":"71100","city":"Saint-Rémy","address":"chemin de Martorey 71100 Saint-Rémy","chef":"Cédric Burtin","url":"https://restaurant.michelin.fr/294rtmv/lamaryllis-saint-remy"},{"name":"Hostellerie Jérôme","road":"20 r. Comte de Cessole","zipcode":"06320","city":"La Turbie","address":"20 r. Comte de Cessole 06320 La Turbie","chef":"Bruno Cirino","url":"https://restaurant.michelin.fr/2b5e0ez/hostellerie-jerome-la-turbie"},{"name":"L'Arnsbourg","road":"Untermuhlthal","zipcode":"57230","city":"Baerenthal","address":"Untermuhlthal 57230 Baerenthal","chef":"Fabien Mengus","url":"https://restaurant.michelin.fr/yjkdc8kf/larnsbourg-baerenthal"},{"name":"Le Millénaire","road":"4 rue Bertin","zipcode":"51100","city":"Reims","address":"4 rue Bertin 51100 Reims","chef":"Laurent et Thibault Laplaige","url":"https://restaurant.michelin.fr/2ank1c1/le-millenaire-reims"},{"name":"Manoir de la Boulaie","road":"33 rue Chapelle St-Martin","zipcode":"44115","city":"HAUTE-GOULAINE","address":"33 rue Chapelle St-Martin 44115 HAUTE-GOULAINE","chef":"Laurent Saudeau","url":"https://restaurant.michelin.fr/2a3ey4n/manoir-de-la-boulaie-haute-goulaine"},{"name":"Le Belvédère","road":"11 rte du Maquis-Jean-Pierre","zipcode":"12340","city":"Bozouls","address":"11 rte du Maquis-Jean-Pierre 12340 Bozouls","chef":"Guillaume Viala","url":"https://restaurant.michelin.fr/2d4rcim/le-belvedere-bozouls"},{"name":"David Toutain","road":"29 r. Surcouf","zipcode":"75007","city":"Paris","address":"29 r. Surcouf 75007 Paris","chef":"","url":"https://restaurant.michelin.fr/2ei5hub/david-toutain-paris-07"},{"name":"Le Castellaras","road":"461 chemin Peymeyan","zipcode":"83440","city":"Fayence","address":"461 chemin Peymeyan 83440 Fayence","chef":"Quentin Joplet","url":"https://restaurant.michelin.fr/29h5xkp/le-castellaras-fayence"},{"name":"Le Gabriel","road":"42 Avenue Gabriel","zipcode":"75008","city":"Paris","address":"42 Avenue Gabriel 75008 Paris","chef":"Jérôme Banctel","url":"https://restaurant.michelin.fr/9sqrw32m/le-gabriel-paris-08"},{"name":"Tour d'Argent","road":"15 quai de la Tournelle","zipcode":"75005","city":"Paris","address":"15 quai de la Tournelle 75005 Paris","chef":"","url":"https://restaurant.michelin.fr/2a8xf2a/tour-dargent-paris-05"},{"name":"Le Moulin d'Alotz","road":"chemin Alotz-Errota","zipcode":"64200","city":"Alotz","address":"chemin Alotz-Errota 64200 Alotz","chef":"Benoit Sarthou","url":"https://restaurant.michelin.fr/28x0rz3/le-moulin-dalotz-alotz"},{"name":"Le Pily","road":"39 Grande-Rue","zipcode":"50100","city":"Cherbourg-en-Cotentin","address":"39 Grande-Rue 50100 Cherbourg-en-Cotentin","chef":"Pierre Marion","url":"https://restaurant.michelin.fr/2eh8fjc/le-pily-cherbourg-en-cotentin"},{"name":"Vieux Pont","road":"","zipcode":"12390","city":"Belcastel","address":" 12390 Belcastel","chef":"Nicole Fagegaltier et Bruno Rouquier","url":"https://restaurant.michelin.fr/28vap07/vieux-pont-belcastel"},{"name":"Étincelles - La Gentilhommière","road":"","zipcode":"24440","city":"Sainte-Sabine","address":" 24440 Sainte-Sabine","chef":"Vincent Lucas","url":"https://restaurant.michelin.fr/2ejolq7/etincelles-la-gentilhommiere-sainte-sabine"},{"name":"La Table des Cordeliers","road":"1 r. des Cordeliers","zipcode":"32100","city":"Condom","address":"1 r. des Cordeliers 32100 Condom","chef":"Éric Sampietro","url":"https://restaurant.michelin.fr/2d7x1hk/la-table-des-cordeliers-condom"},{"name":"Le Jules Verne","road":"2<E>ème</E> étage Tour Eiffel","zipcode":"75007","city":"Paris","address":"2<E>ème</E> étage Tour Eiffel 75007 Paris","chef":"","url":"https://restaurant.michelin.fr/2aa3qhg/le-jules-verne-paris-07"},{"name":"Mon Plaisir","road":"22 lieu-dit Journal","zipcode":"25190","city":"Chamesol","address":"22 lieu-dit Journal 25190 Chamesol","chef":"Christian Pilloud","url":"https://restaurant.michelin.fr/2d6m1yv/mon-plaisir-chamesol"},{"name":"Au 14 Février","road":"36 r. du Bœuf","zipcode":"","city":"Lyon 05","address":"36 r. du Bœuf  Lyon 05","chef":"Tsuyoshi Arai","url":"https://restaurant.michelin.fr/2f8f1gn/au-14-fevrier-lyon-05"},{"name":"L'Atlantide 1874 - Maison Guého","road":"5 r. de l'Hermitage","zipcode":"44100","city":"Nantes","address":"5 r. de l'Hermitage 44100 Nantes","chef":"Jean-Yves Guého","url":"https://restaurant.michelin.fr/2a32200/latlantide-1874-maison-gueho-nantes"},{"name":"Jérémy Galvan","road":"Rue du Boeuf","zipcode":"69005","city":"Lyon 05","address":"Rue du Boeuf 69005 Lyon 05","chef":"","url":"https://restaurant.michelin.fr/3plxd2e/jeremy-galvan-lyon-05"},{"name":"Le Cerf","road":"30 r. du Gén.-de-Gaulle","zipcode":"67520","city":"Marlenheim","address":"30 r. du Gén.-de-Gaulle 67520 Marlenheim","chef":"Michel Husser et Joël Philipps","url":"https://restaurant.michelin.fr/2c74pw3/le-cerf-marlenheim"},{"name":"Hostellerie la Montagne","road":"10 rue Pisseloup","zipcode":"52330","city":"COLOMBEY-LES-DEUX-EGLISES","address":"10 rue Pisseloup 52330 COLOMBEY-LES-DEUX-EGLISES","chef":"Jean-Baptiste Natali","url":"https://restaurant.michelin.fr/298i34w/hostellerie-la-montagne-colombey-les-deux-eglises"},{"name":"L'Aubergade","road":"78 rte Nationale","zipcode":"80480","city":"Dury","address":"78 rte Nationale 80480 Dury","chef":"Eric Boutté","url":"https://restaurant.michelin.fr/28olvn9/laubergade-dury"},{"name":"Château du Mont Joly","road":"6 r. du Mont-Joly","zipcode":"39100","city":"Sampans","address":"6 r. du Mont-Joly 39100 Sampans","chef":"Romuald Fassenet","url":"https://restaurant.michelin.fr/2ejhn11/chateau-du-mont-joly-sampans"},{"name":"Au Vieux Couvent","road":"6 r. des Chanoines","zipcode":"67860","city":"Rhinau","address":"6 r. des Chanoines 67860 Rhinau","chef":"Alexis Albrecht","url":"https://restaurant.michelin.fr/2aogs9u/au-vieux-couvent-rhinau"},{"name":"Entre Vigne et Garrigue","road":"600 route de Saint Bruno","zipcode":"30131","city":"Pujaut","address":"600 route de Saint Bruno 30131 Pujaut","chef":"Serge et Maxime Chenet","url":"https://restaurant.michelin.fr/2etuup9/entre-vigne-et-garrigue-pujaut"},{"name":"Benoit","road":"20 Rue St-Martin","zipcode":"75004","city":"Paris 04","address":"20 Rue St-Martin 75004 Paris 04","chef":"Fabienne Eymard","url":"https://restaurant.michelin.fr/2a8isn4/benoit-paris-04"},{"name":"Le Prieuré","road":"r. de la Mairie","zipcode":"42820","city":"Ambierle","address":"r. de la Mairie 42820 Ambierle","chef":"Thierry Fernandes","url":"https://restaurant.michelin.fr/28od0rp/le-prieure-ambierle"},{"name":"L'O des Vignes","road":"r. du Bourg","zipcode":"71960","city":"Fuissé","address":"r. du Bourg 71960 Fuissé","chef":"Sébastien Chambru","url":"https://restaurant.michelin.fr/3fa7ojh3/lo-des-vignes-fuisse"},{"name":"Restaurant du Palais Royal","road":"110 Galerie de Valois - Jardin du Palais Royal","zipcode":"75001","city":"Paris 01","address":"110 Galerie de Valois - Jardin du Palais Royal 75001 Paris 01","chef":"Philip Chronopoulos","url":"https://restaurant.michelin.fr/2a7qx35/restaurant-du-palais-royal-paris-01"},{"name":"Greuze","road":"1 r. A. Thibaudet","zipcode":"71700","city":"Tournus","address":"1 r. A. Thibaudet 71700 Tournus","chef":"Yohann Chapuis","url":"https://restaurant.michelin.fr/3uonmfw/greuze-tournus"},{"name":"Maximin Hellio","road":"64 Rue Gambetta","zipcode":"14800","city":"DEAUVILLE","address":"64 Rue Gambetta 14800 DEAUVILLE","chef":"Hellio Maximin","url":"https://restaurant.michelin.fr/u945qtuv/maximin-hellio-deauville"},{"name":"JAN","road":"12 Rue Lascaris","zipcode":"06000","city":"Nice","address":"12 Rue Lascaris 06000 Nice","chef":"Jan Hendrik van der Westhuizen","url":"https://restaurant.michelin.fr/38z104i7/jan-nice"},{"name":"Hostellerie Les Gorges de Pennafort","road":"8660 RD 25","zipcode":"83830","city":"Callas","address":"8660 RD 25 83830 Callas","chef":"Philippe Da Silva","url":"https://restaurant.michelin.fr/2blmwvy/hostellerie-les-gorges-de-pennafort-callas"},{"name":"L'Oasis","road":"rue Jean-Honoré Carle","zipcode":"06210","city":"La Napoule","address":"rue Jean-Honoré Carle 06210 La Napoule","chef":"Stéphane, Antoine et François Raimbault","url":"https://restaurant.michelin.fr/29v9df2/loasis-mandelieu-la-napoule"},{"name":"Côté Jardin","road":"14 rte de Bourges","zipcode":"45500","city":"Gien","address":"14 rte de Bourges 45500 Gien","chef":"Arnaud Billard","url":"https://restaurant.michelin.fr/29jyv6a/cote-jardin-gien"},{"name":"Une Table au Sud","road":"2 quai du Port","zipcode":"13002","city":"Marseille","address":"2 quai du Port 13002 Marseille","chef":"Ludovic Turac","url":"https://restaurant.michelin.fr/29w4kky/une-table-au-sud-marseille-02"},{"name":"La Madeleine","road":"1 Rue Alsace-Lorraine","zipcode":"89100","city":"Sens","address":"1 Rue Alsace-Lorraine 89100 Sens","chef":"Patrick Gauthier","url":"https://restaurant.michelin.fr/2azofoh/la-madeleine-sens"},{"name":"Auberge La Pomme d'Api","road":"49 r. Verderel","zipcode":"29250","city":"Saint-Pol-de-Léon","address":"49 r. Verderel 29250 Saint-Pol-de-Léon","chef":"Jérémie Le Calvez","url":"https://restaurant.michelin.fr/2aw36e7/auberge-la-pomme-dapi-saint-pol-de-leon"},{"name":"Palm Beach","road":"route des Iles Sanguinaires","zipcode":"20000","city":"Ajaccio","address":"route des Iles Sanguinaires 20000 Ajaccio","chef":"","url":"https://restaurant.michelin.fr/299lkwi1/palm-beach-ajaccio"},{"name":"Le Carmin","road":"4B Place Carnot","zipcode":"21200","city":"Beaune","address":"4B Place Carnot 21200 Beaune","chef":"Christophe Quéant","url":"https://restaurant.michelin.fr/8zb6c2d4/le-carmin-beaune"},{"name":"Le Corot","road":"55 Rue de Versailles","zipcode":"92410","city":"VILLE-D'AVRAY","address":"55 Rue de Versailles 92410 VILLE-D'AVRAY","chef":"Rémi Chambard","url":"https://restaurant.michelin.fr/2aiulws5/le-corot-ville-davray"},{"name":"Au 14 Février","road":"Le Plâtre-Durand","zipcode":"71570","city":"Saint-Amour-Bellevue","address":"Le Plâtre-Durand 71570 Saint-Amour-Bellevue","chef":"Masafumi Hamano","url":"https://restaurant.michelin.fr/3ffziwd6/au-14-fevrier-platre-durand"},{"name":"La Bastide de Moustiers","road":"Parc naturel régional du Verdon, Chemin de Quinson","zipcode":"04360","city":"Moustiers-Sainte-Marie","address":"Parc naturel régional du Verdon, Chemin de Quinson 04360 Moustiers-Sainte-Marie","chef":"Frédéric Garnier","url":"https://restaurant.michelin.fr/2cbq46s/la-bastide-de-moustiers-moustiers-sainte-marie"},{"name":"Le Chantecler","road":"37 Promenade des Anglais","zipcode":"06000","city":"NICE","address":"37 Promenade des Anglais 06000 NICE","chef":"Jean-Denis Rieubland","url":"https://restaurant.michelin.fr/2a4echf50/le-chantecler-nice"},{"name":"Yam'Tcha","road":"121 r. St-Honoré","zipcode":"75001","city":"Paris","address":"121 r. St-Honoré 75001 Paris","chef":"Adeline Grattard","url":"https://restaurant.michelin.fr/2ewldde/yamtcha-paris-01"},{"name":"Le Parc Les Crayères","road":"64 Boulevard Henry Vasnier","zipcode":"51100","city":"Reims","address":"64 Boulevard Henry Vasnier 51100 Reims","chef":"PHILIPPE MILLE","url":"https://restaurant.michelin.fr/2clh5yg/le-parc-les-crayeres-reims"},{"name":"Intuition","road":"1 r. Alsace-Lorraine","zipcode":"50000","city":"Saint-Lô","address":"1 r. Alsace-Lorraine 50000 Saint-Lô","chef":"Mickaël Marion","url":"https://restaurant.michelin.fr/3ffxvs0j/intuition-saint-lo"},{"name":"Le Pavé d'Auge","road":"D49","zipcode":"14430","city":"Beuvron-en-Auge","address":"D49 14430 Beuvron-en-Auge","chef":"Jérôme Bansard","url":"https://restaurant.michelin.fr/28wgjgo/le-pave-dauge-beuvron-en-auge"},{"name":"Saturne","road":"17 r. N.-D.-des-Victoires","zipcode":"75002","city":"Paris","address":"17 r. N.-D.-des-Victoires 75002 Paris","chef":"Sven Chartier","url":"https://restaurant.michelin.fr/2fe4uol/saturne-paris-02"},{"name":"La Bonne Auberge","road":"15 r. Nationale","zipcode":"57350","city":"Stiring-Wendel","address":"15 r. Nationale 57350 Stiring-Wendel","chef":"Lydia Egloff","url":"https://restaurant.michelin.fr/29ifnwu/la-bonne-auberge-stiring-wendel"},{"name":"La Ferme de l'Hospital","road":"rte du golf","zipcode":"74160","city":"Bossey","address":"rte du golf 74160 Bossey","chef":"Jean-Jacques Noguier","url":"https://restaurant.michelin.fr/2atzy38/la-ferme-de-lhospital-bossey"},{"name":"La Roya","road":"plage de la Roya","zipcode":"20217","city":"Saint-Florent","address":"plage de la Roya 20217 Saint-Florent","chef":"","url":"https://restaurant.michelin.fr/2bsyl7y/la-roya-saint-florent"},{"name":"Les Tables de Gaspard","road":"r. Principale","zipcode":"05600","city":"St-Crépin","address":"r. Principale 05600 St-Crépin","chef":"Sébastien Corniau","url":"https://restaurant.michelin.fr/2duw4bw/les-tables-de-gaspard-saint-crepin"},{"name":"L'Orée de la Forêt","road":"255 r. de la Forêt","zipcode":"60600","city":"Étouy","address":"255 r. de la Forêt 60600 Étouy","chef":"Nicolas Leclercq","url":"https://restaurant.michelin.fr/297c2t4/loree-de-la-foret-etouy"},{"name":"Château Blanchard","road":"36 rte de St-Galmier","zipcode":"42140","city":"Chazelles-sur-Lyon","address":"36 rte de St-Galmier 42140 Chazelles-sur-Lyon","chef":"Sylvain Roux","url":"https://restaurant.michelin.fr/ou4s65x/chateau-blanchard-chazelles-sur-lyon"},{"name":"Table - Bruno Verjus","road":"3 r. de Prague","zipcode":"75012","city":"Paris","address":"3 r. de Prague 75012 Paris","chef":"","url":"https://restaurant.michelin.fr/3ffvej5j/table-bruno-verjus-paris-12"},{"name":"Val d'Auge","road":"805 av. du Gén.-de-Gaulle","zipcode":"59910","city":"Bondues","address":"805 av. du Gén.-de-Gaulle 59910 Bondues","chef":"Christophe Hagnerelle","url":"https://restaurant.michelin.fr/29rcoot/val-dauge-bondues"},{"name":"Le Neuvième Art","road":"173 r. Cuvier","zipcode":"69006","city":"Lyon","address":"173 r. Cuvier 69006 Lyon","chef":"Christophe Roure","url":"https://restaurant.michelin.fr/6pz7edt2/le-neuvieme-art-lyon-06"},{"name":"La Ville Blanche","road":"La Ville Blanche","zipcode":"22300","city":"Rospez","address":"La Ville Blanche 22300 Rospez","chef":"Jean-Yves Jaguin","url":"https://restaurant.michelin.fr/29pm63n/la-ville-blanche-rospez"},{"name":"Le Pêché Gourmand","road":"2 rte de Gap","zipcode":"05100","city":"Briançon","address":"2 rte de Gap 05100 Briançon","chef":"Sharon et Jimmy Frannais","url":"https://restaurant.michelin.fr/9ngaiit/le-peche-gourmand-briancon"},{"name":"Apicius","road":"20 r. d'Artois","zipcode":"75008","city":"Paris","address":"20 r. d'Artois 75008 Paris","chef":"","url":"https://restaurant.michelin.fr/2affgmi/apicius-paris-08"},{"name":"Les Pyrénées","road":"19 pl. Ch.-de-Gaulle","zipcode":"64220","city":"Saint-Jean-Pied-de-Port","address":"19 pl. Ch.-de-Gaulle 64220 Saint-Jean-Pied-de-Port","chef":"Philippe Arrambide","url":"https://restaurant.michelin.fr/2cqrobi/les-pyrenees-saint-jean-pied-de-port"},{"name":"La Fourchette du Printemps","road":"30 r. du Printemps","zipcode":"75017","city":"Paris","address":"30 r. du Printemps 75017 Paris","chef":"Nicolas Mouton","url":"https://restaurant.michelin.fr/2f4nbgd/la-fourchette-du-printemps-paris-17"},{"name":"À Contre Sens","road":"8-10 r. des Croisiers","zipcode":"14000","city":"Caen","address":"8-10 r. des Croisiers 14000 Caen","chef":"Anthony Caillot","url":"https://restaurant.michelin.fr/3wc5nsy/contre-sens-caen"},{"name":"Le Château de Sable","road":"38 r. de l'Europe","zipcode":"29840","city":"Porspoder","address":"38 r. de l'Europe 29840 Porspoder","chef":"","url":"https://restaurant.michelin.fr/2nnu14s6/le-chateau-de-sable-porspoder"},{"name":"Haut Bonheur de la Table","road":"18 Grand-Place","zipcode":"59670","city":"Cassel","address":"18 Grand-Place 59670 Cassel","chef":"Eugène Hobraiche","url":"https://restaurant.michelin.fr/6274yuk/haut-bonheur-de-la-table-cassel"},{"name":"Le Montgomerie","road":"356 rte de l'Altiport","zipcode":"73120","city":"Courchevel 1850","address":"356 rte de l'Altiport 73120 Courchevel 1850","chef":"","url":"https://restaurant.michelin.fr/29b4lr4/le-montgomerie-courchevel-1850"},{"name":"L'Alchémille","road":"53 rte de Lapoutroie","zipcode":"68240","city":"Kaysersberg","address":"53 rte de Lapoutroie 68240 Kaysersberg","chef":"Jérôme Jaegle","url":"https://restaurant.michelin.fr/ua3c2rxf/lalchemille-kaysersberg-vignoble"},{"name":"Auberge Le Prieuré","road":"4 Grand'Rue","zipcode":"47310","city":"Moirax","address":"4 Grand'Rue 47310 Moirax","chef":"Benjamin Toursel","url":"https://restaurant.michelin.fr/2dl7htu/auberge-le-prieure-moirax"},{"name":"ES","road":"91 r. de Grenelle","zipcode":"75007","city":"Paris","address":"91 r. de Grenelle 75007 Paris","chef":"Takayuki Honjo","url":"https://restaurant.michelin.fr/27ym5i25/es-paris-07"},{"name":"Château de la Treyne","road":"","zipcode":"46200","city":"Lacave","address":" 46200 Lacave","chef":"","url":"https://restaurant.michelin.fr/2c38ubh/chateau-de-la-treyne-lacave"},{"name":"La Robe","road":"3 pl. Reveillère-Lepeaux","zipcode":"85600","city":"Montaigu","address":"3 pl. Reveillère-Lepeaux 85600 Montaigu","chef":"Xavier Giraudet","url":"https://restaurant.michelin.fr/3ffqpazw/la-robe-montaigu"},{"name":"Le Prieuré","road":"7 pl. du Chapitre","zipcode":"30400","city":"Villeneuve-lès-Avignon","address":"7 pl. du Chapitre 30400 Villeneuve-lès-Avignon","chef":"","url":"https://restaurant.michelin.fr/2d2wqpd/le-prieure-villeneuve-les-avignon"},{"name":"Gavroche","road":"4 r. Klein","zipcode":"67000","city":"Strasbourg","address":"4 r. Klein 67000 Strasbourg","chef":"Benoit Fuchs","url":"https://restaurant.michelin.fr/2b120tk/gavroche-strasbourg"},{"name":"Les Trois Soleils de Montal","road":"St-Jean-Lespinasse","zipcode":"46400","city":"Saint-Céré","address":"St-Jean-Lespinasse 46400 Saint-Céré","chef":"Frédérik Bizat","url":"https://restaurant.michelin.fr/2coonxc/les-trois-soleils-de-montal-saint-cere"},{"name":"Gaya Rive Gauche par Pierre Gagnaire","road":"44 r. du Bac","zipcode":"75007","city":"Paris","address":"44 r. du Bac 75007 Paris","chef":"","url":"https://restaurant.michelin.fr/2aabj6o/gaya-rive-gauche-par-pierre-gagnaire-paris-07"},{"name":"L'Éveil des Sens","road":"429 bd Paul-Lintier","zipcode":"53100","city":"Mayenne","address":"429 bd Paul-Lintier 53100 Mayenne","chef":"Nicolas Nobis","url":"https://restaurant.michelin.fr/2f77d7t/leveil-des-sens-mayenne"},{"name":"Le Moulin des Quatre Saisons","road":"r. Gallieni","zipcode":"72200","city":"La Flèche","address":"r. Gallieni 72200 La Flèche","chef":"Camille Constantin","url":"https://restaurant.michelin.fr/29hrl09/le-moulin-des-quatre-saisons-la-fleche"},{"name":"Lou Cigalon-Maison Martin","road":"6 bd Carnot","zipcode":"06560","city":"Valbonne","address":"6 bd Carnot 06560 Valbonne","chef":"Christophe Martin","url":"https://restaurant.michelin.fr/41vsxiz/lou-cigalon-maison-martin-valbonne"},{"name":"St-James Paris","road":"43 av. Bugeaud","zipcode":"75116","city":"Paris","address":"43 av. Bugeaud 75116 Paris","chef":"","url":"https://restaurant.michelin.fr/9qoy529/st-james-paris-paris-16"},{"name":"Henri et Joseph","road":"4 r. Léo-le-Bourgo","zipcode":"56100","city":"Lorient","address":"4 r. Léo-le-Bourgo 56100 Lorient","chef":"Philippe Le Lay","url":"https://restaurant.michelin.fr/2e29zv6/henri-et-joseph-lorient"},{"name":"Le Sérac","road":"22 r. de la Comtesse","zipcode":"74170","city":"Saint-Gervais-les-Bains","address":"22 r. de la Comtesse 74170 Saint-Gervais-les-Bains","chef":"Raphaël Le Mancq","url":"https://restaurant.michelin.fr/2di661r/le-serac-saint-gervais-les-bains"},{"name":"Mavrommatis","road":"42 rue Daubenton","zipcode":"75005","city":"Paris 05","address":"42 rue Daubenton 75005 Paris 05","chef":"Andréas MAVROMMATIS","url":"https://restaurant.michelin.fr/2a95vol/mavrommatis-paris-05"},{"name":"La Maison des Bois - Marc Veyrat","road":"Chemin Rural de Manigod au Col de la Croix Fry","zipcode":"74230","city":"Manigod","address":"Chemin Rural de Manigod au Col de la Croix Fry 74230 Manigod","chef":"Marc Veyrat","url":"https://restaurant.michelin.fr/8zgzs262/la-maison-des-bois-marc-veyrat-manigod"},{"name":"Flaveurs","road":"32 Grande-Rue","zipcode":"26000","city":"Valence","address":"32 Grande-Rue 26000 Valence","chef":"Baptiste Poinot","url":"https://restaurant.michelin.fr/2e043qi/flaveurs-valence"},{"name":"Emporio Armani Ristorante","road":"149 Boulevard Saint-Germain","zipcode":"75006","city":"Paris","address":"149 Boulevard Saint-Germain 75006 Paris","chef":"Massimo Tringali","url":"https://restaurant.michelin.fr/3044086/emporio-armani-ristorante-paris-06"},{"name":"Le Beaulieu","road":"34 Bis Place République","zipcode":"72000","city":"Le Mans","address":"34 Bis Place République 72000 Le Mans","chef":"Olivier Boussard","url":"https://restaurant.michelin.fr/29vchdk/le-beaulieu-le-mans"},{"name":"Aida","road":"1 r. Pierre Leroux","zipcode":"75007","city":"Paris 07","address":"1 r. Pierre Leroux 75007 Paris 07","chef":"Koji Aida","url":"https://restaurant.michelin.fr/2dzh7q2/aida-paris-07"},{"name":"L'Esquisse","road":"21 rue Royale","zipcode":"74000","city":"Annecy","address":"21 rue Royale 74000 Annecy","chef":"Stéphane Dattrino","url":"https://restaurant.michelin.fr/9tr3fvt/lesquisse-annecy"},{"name":"Stéphane Carbone","road":"14 r. de Courtonne","zipcode":"14000","city":"Caen","address":"14 r. de Courtonne 14000 Caen","chef":"","url":"https://restaurant.michelin.fr/2enzj8x/stephane-carbone-caen"},{"name":"I Salti","road":"route du Reginu","zipcode":"20226","city":"Belgodère","address":"route du Reginu 20226 Belgodère","chef":"David Doury","url":"https://restaurant.michelin.fr/3ffu4gq2/i-salti-belgodere"},{"name":"Maison Jeunet","road":"9 r. de l'Hôtel-de-Ville","zipcode":"39600","city":"Arbois","address":"9 r. de l'Hôtel-de-Ville 39600 Arbois","chef":"Steven Naessens","url":"https://restaurant.michelin.fr/28pylpu/maison-jeunet-arbois"},{"name":"L'Étang du Moulin","road":"5 chemin de l'Etang du Moulin","zipcode":"25210","city":"Bonnétage","address":"5 chemin de l'Etang du Moulin 25210 Bonnétage","chef":"Jacques Barnachon","url":"https://restaurant.michelin.fr/28xqe8v/letang-du-moulin-bonnetage"},{"name":"L'Axel","road":"43 r. de France","zipcode":"77300","city":"Fontainebleau","address":"43 r. de France 77300 Fontainebleau","chef":"Kunihisa Goto","url":"https://restaurant.michelin.fr/29i66ux/laxel-fontainebleau"},{"name":"Garopapilles","road":"62 r. Abbé-de-L'Epée","zipcode":"33000","city":"Bordeaux","address":"62 r. Abbé-de-L'Epée 33000 Bordeaux","chef":"Tanguy Laviale","url":"https://restaurant.michelin.fr/3wsi04j3/garopapilles-bordeaux"},{"name":"Le Pousse-Pied","road":"84 bd des Vendéens","zipcode":"85360","city":"La Tranche-sur-Mer","address":"84 bd des Vendéens 85360 La Tranche-sur-Mer","chef":"Anthony Lumet","url":"https://restaurant.michelin.fr/376ocf6f/le-pousse-pied-la-tranche-sur-mer"},{"name":"Dan B. - La Table de Ventabren","road":"r. F. -Mistral","zipcode":"13122","city":"Ventabren","address":"r. F. -Mistral 13122 Ventabren","chef":"Dan Bessoudo","url":"https://restaurant.michelin.fr/2b7at88/dan-b-la-table-de-ventabren-ventabren"},{"name":"Garance","road":"34 r. St-Dominique","zipcode":"75007","city":"Paris","address":"34 r. St-Dominique 75007 Paris","chef":"Guillaume Iskandar","url":"https://restaurant.michelin.fr/3ffpat6p/garance-paris-07"},{"name":"L'Émulsion","road":"57 rte de Lyon","zipcode":"38080","city":"Saint-Alban-de-Roche","address":"57 rte de Lyon 38080 Saint-Alban-de-Roche","chef":"Romain Hubert","url":"https://restaurant.michelin.fr/5jdkm0u/lemulsion-saint-alban-de-roche"},{"name":"Christopher Coutanceau","road":"Promenade de la Concurrence","zipcode":"17000","city":"La Rochelle","address":"Promenade de la Concurrence 17000 La Rochelle","chef":"CHRISTOPHER COUTANCEAU","url":"https://restaurant.michelin.fr/2apfrj5/christopher-coutanceau-la-rochelle"},{"name":"Le Pavillon","road":"av. du Verger","zipcode":"62520","city":"Le Touquet-Paris-Plage","address":"av. du Verger 62520 Le Touquet-Paris-Plage","chef":"","url":"https://restaurant.michelin.fr/2b3t8kh/le-pavillon-le-touquet-paris-plage"},{"name":"Gordon Ramsay au Trianon","road":"1 bd de la Reine","zipcode":"78000","city":"Versailles","address":"1 bd de la Reine 78000 Versailles","chef":"","url":"https://restaurant.michelin.fr/2aiqpqd/gordon-ramsay-au-trianon-versailles"},{"name":"Casadelmar","road":"Route de la Plage de Palombaggia","zipcode":"20137","city":"Porto-Vecchio","address":"Route de la Plage de Palombaggia 20137 Porto-Vecchio","chef":"Fabio Bragagnolo","url":"https://restaurant.michelin.fr/2dk81h5143/casadelmar-porto-vecchio"},{"name":"U Santa Marina","road":"Marina di Santa Giulia","zipcode":"20137","city":"Porto-Vecchio","address":"Marina di Santa Giulia 20137 Porto-Vecchio","chef":"","url":"https://restaurant.michelin.fr/2e7dmcj/u-santa-marina-porto-vecchio"},{"name":"La Marine","road":"11 r. de Paris","zipcode":"50270","city":"Barneville-Carteret","address":"11 r. de Paris 50270 Barneville-Carteret","chef":"","url":"https://restaurant.michelin.fr/2bgh04f/la-marine-carteret"},{"name":"L'Archeste","road":"79 rue de la Tour","zipcode":"75116","city":"Paris","address":"79 rue de la Tour 75116 Paris","chef":"Yoshiaki Ito","url":"https://restaurant.michelin.fr/2852206/larcheste-paris-16"},{"name":"Auberge La Fenière","road":"D943","zipcode":"84160","city":"Cadenet","address":"D943 84160 Cadenet","chef":"Reine Sammut","url":"https://restaurant.michelin.fr/29sgjsx279/auberge-la-feniere-cadenet"},{"name":"Le Marcq","road":"944 av. de la République","zipcode":"59700","city":"Marcq-en-Barœul","address":"944 av. de la République 59700 Marcq-en-Barœul","chef":"Abdelkader Belfatmi","url":"https://restaurant.michelin.fr/2dkifdh/le-marcq-marcq-en-baroeul"},{"name":"SEPT","road":"7 pl. St-Sernin","zipcode":"31000","city":"Toulouse","address":"7 pl. St-Sernin 31000 Toulouse","chef":"Guillaume Momboisse","url":"https://restaurant.michelin.fr/2b38wht/sept-toulouse"},{"name":"Jean-Claude Leclerc","road":"12 rue St-Adjutor","zipcode":"63000","city":"Clermont-Ferrand","address":"12 rue St-Adjutor 63000 Clermont-Ferrand","chef":"Jean-Claude Leclerc","url":"https://restaurant.michelin.fr/297ge86/jean-claude-leclerc-clermont-ferrand"},{"name":"Restaurant des Rois","road":"5 Boulevard du Maréchal Leclerc","zipcode":"06310","city":"Beaulieu-sur-Mer","address":"5 Boulevard du Maréchal Leclerc 06310 Beaulieu-sur-Mer","chef":"Yannick Franques","url":"https://restaurant.michelin.fr/2bh3p7k/restaurant-des-rois-beaulieu-sur-mer"},{"name":"Le Grand Restaurant - Jean-François Piège","road":"7 r. d'Aguesseau","zipcode":"75008","city":"Paris","address":"7 r. d'Aguesseau 75008 Paris","chef":"","url":"https://restaurant.michelin.fr/u5aaw2ah/le-grand-restaurant-jean-francois-piege-paris-08"},{"name":"La Renaissance","road":"20 av. 2e-Division-Blindée","zipcode":"61200","city":"Argentan","address":"20 av. 2e-Division-Blindée 61200 Argentan","chef":"Arnaud Viel","url":"https://restaurant.michelin.fr/28qk3fo/la-renaissance-argentan"},{"name":"Les Loges","road":"6 r. du Boeuf","zipcode":"69005","city":"Lyon 05","address":"6 r. du Boeuf 69005 Lyon 05","chef":"Anthony Bonnet","url":"https://restaurant.michelin.fr/29t3z0x/les-loges-lyon-05"},{"name":"Rodolphe","road":"35 r. Percière","zipcode":"76000","city":"Rouen","address":"35 r. Percière 76000 Rouen","chef":"Rodolphe Pottier","url":"https://restaurant.michelin.fr/j9cof0s1/rodolphe-rouen"},{"name":"Racine","road":"6 pl. Godinot","zipcode":"51100","city":"Reims","address":"6 pl. Godinot 51100 Reims","chef":"Kazuyuki Tanaka","url":"https://restaurant.michelin.fr/eiak4cnv/racine-reims"},{"name":"La Table by La Villa","road":"chemin de Notre-Dame-de-la-Serra","zipcode":"20260","city":"Calvi","address":"chemin de Notre-Dame-de-la-Serra 20260 Calvi","chef":"","url":"https://restaurant.michelin.fr/299w7ls/la-table-la-villa-calvi"},{"name":"Le Clocher des Pères","road":"D213","zipcode":"73130","city":"Saint-Martin-sur-la-Chambre","address":"D213 73130 Saint-Martin-sur-la-Chambre","chef":"Pierre Troccaz","url":"https://restaurant.michelin.fr/h43i086/le-clocher-des-peres-saint-martin-sur-la-chambre"},{"name":"La Grange de Belle-Église","road":"28 bd René-Aimé-Lagabrielle","zipcode":"60540","city":"Belle-Église","address":"28 bd René-Aimé-Lagabrielle 60540 Belle-Église","chef":"Marc Duval","url":"https://restaurant.michelin.fr/28vem1k/la-grange-de-belle-eglise-belle-eglise"},{"name":"Ken Kawasaki","road":"15 r. Caulaincourt","zipcode":"75018","city":"Paris","address":"15 r. Caulaincourt 75018 Paris","chef":"","url":"https://restaurant.michelin.fr/ximkypex/ken-kawasaki-paris-18"},{"name":"Arpège","road":"84 Rue de Varenne","zipcode":"75007","city":"Paris","address":"84 Rue de Varenne 75007 Paris","chef":"Alain Passard","url":"https://restaurant.michelin.fr/2aa11xs/arpege-paris-07"},{"name":"La Table de Nans","road":"corniche du Liouquet","zipcode":"13600","city":"La Ciotat","address":"corniche du Liouquet 13600 La Ciotat","chef":"Nans Gaillard","url":"https://restaurant.michelin.fr/akfvyg8/la-table-de-nans-la-ciotat"},{"name":"Le Clos St-Pierre","road":"pl. de la Mairie","zipcode":"06650","city":"Le Rouret","address":"pl. de la Mairie 06650 Le Rouret","chef":"Daniel Ettlinger","url":"https://restaurant.michelin.fr/2aqst5c/le-clos-st-pierre-saint-pons"},{"name":"Auberge du Paradis","road":"Le Plâtre-Durand","zipcode":"71570","city":"Saint-Amour-Bellevue","address":"Le Plâtre-Durand 71570 Saint-Amour-Bellevue","chef":"Cyril Laugier","url":"https://restaurant.michelin.fr/2armsjm/auberge-du-paradis-platre-durand"},{"name":"Le Kintessence","road":"Rue des Clarines","zipcode":"73120","city":"Courchevel 1850","address":"Rue des Clarines 73120 Courchevel 1850","chef":"Jean-Rémi Caillon","url":"https://restaurant.michelin.fr/am8q9hp/le-kintessence-courchevel-1850"},{"name":"Le Skiff Club","road":"1 av. Louis-Gaume","zipcode":"33260","city":"La Teste-de-Buch","address":"1 av. Louis-Gaume 33260 La Teste-de-Buch","chef":"","url":"https://restaurant.michelin.fr/2851256/le-skiff-club-la-teste-de-buch"},{"name":"Pèir","road":"r. de la Combe","zipcode":"84220","city":"Gordes","address":"r. de la Combe 84220 Gordes","chef":"","url":"https://restaurant.michelin.fr/r9fvmyyv/peir-gordes"},{"name":"Le Saint-James","road":"3 pl. Camille-Hostein","zipcode":"33270","city":"BOULIAC","address":"3 pl. Camille-Hostein 33270 BOULIAC","chef":"Nicolas Magie","url":"https://restaurant.michelin.fr/2bj8gr9/le-saint-james-bouliac"},{"name":"La Chèvre d'Or","road":"r. du Barri","zipcode":"06360","city":"Èze","address":"r. du Barri 06360 Èze","chef":"Arnaud Faye, Chef Exécutif et Julien Dugourd, Chef Pâtissier","url":"https://restaurant.michelin.fr/2bwkh5l/la-chevre-dor-eze"},{"name":"1741","road":"22 Quai des Bateliers","zipcode":"67000","city":"Strasbourg","address":"22 Quai des Bateliers 67000 Strasbourg","chef":"Fabien Raux","url":"https://restaurant.michelin.fr/amv21i8/1741-strasbourg"},{"name":"La Table du Gourmet","road":"5 rue 1ère Armée","zipcode":"68340","city":"Riquewihr","address":"5 rue 1ère Armée 68340 Riquewihr","chef":"Jean-Luc Brendel","url":"https://restaurant.michelin.fr/2aosxv6/la-table-du-gourmet-riquewihr"},{"name":"Château de Vauchoux","road":"","zipcode":"70170","city":"Vauchoux","address":" 70170 Vauchoux","chef":"Jean-Michel Turin","url":"https://restaurant.michelin.fr/2alwjjs/chateau-de-vauchoux-vauchoux"},{"name":"Restaurant H","road":"13 r. Jean-Beausire","zipcode":"75004","city":"Paris","address":"13 r. Jean-Beausire 75004 Paris","chef":"Hubert Duchenne","url":"https://restaurant.michelin.fr/2851556/restaurant-h-paris-04"},{"name":"Akrame","road":"7 r. Tronchet","zipcode":"75008","city":"Paris","address":"7 r. Tronchet 75008 Paris","chef":"Akrame Benallal","url":"https://restaurant.michelin.fr/2851396/akrame-paris-08"},{"name":"Azimut","road":"273 r. de la Madelon","zipcode":"73120","city":"Courchevel-Saint-Bon","address":"273 r. de la Madelon 73120 Courchevel-Saint-Bon","chef":"François Moureaux","url":"https://restaurant.michelin.fr/2elahg3/azimut-le-praz"},{"name":"L'Ambroisie","road":"9 Place des Vosges","zipcode":"75004","city":"Paris","address":"9 Place des Vosges 75004 Paris","chef":"Bernard Pacaud","url":"https://restaurant.michelin.fr/2a8d13e/lambroisie-paris-04"},{"name":"Quinsou","road":"33 r. de l'Abbé-Grégoire","zipcode":"75006","city":"Paris","address":"33 r. de l'Abbé-Grégoire 75006 Paris","chef":"Antonin Bonnet","url":"https://restaurant.michelin.fr/a22cmkwd/quinsou-paris-06"},{"name":"Pierre","road":"7-9 rue Joseph Dufour","zipcode":"71000","city":"Mâcon","address":"7-9 rue Joseph Dufour 71000 Mâcon","chef":"Christian Gaulin","url":"https://restaurant.michelin.fr/29uvz3j/pierre-macon"},{"name":"Le Bistro des Saveurs","road":"35 Rue de Sélestat","zipcode":"67210","city":"Obernai","address":"35 Rue de Sélestat 67210 Obernai","chef":"Thierry Schwartz","url":"https://restaurant.michelin.fr/2a619xs/le-bistro-des-saveurs-obernai"},{"name":"Auberge du Pont d'Acigné","road":"D392","zipcode":"35530","city":"Noyal-sur-Vilaine","address":"D392 35530 Noyal-sur-Vilaine","chef":"Sylvain Guillemot","url":"https://restaurant.michelin.fr/2ao77e3/auberge-du-pont-dacigne-noyal-sur-vilaine"},{"name":"L'Orangerie","road":"31 Avenue George-V","zipcode":"75008","city":"Paris","address":"31 Avenue George-V 75008 Paris","chef":"David Bizet ","url":"https://restaurant.michelin.fr/2851286/lorangerie-paris-08"},{"name":"Skab","road":"7 Rue de la République","zipcode":"30000","city":"nimes","address":"7 Rue de la République 30000 nimes","chef":"Alban BARBETTE et Damien SANCHEZ","url":"https://restaurant.michelin.fr/olnthqo/skab-nimes"},{"name":"Le Gourmet de Sèze","road":"125 Rue de Sèze","zipcode":"69006","city":"Lyon","address":"125 Rue de Sèze 69006 Lyon","chef":"Bernard Mariller","url":"https://restaurant.michelin.fr/29trkin/le-gourmet-de-seze-lyon-06"},{"name":"Au Crocodile","road":"10 rue de L'Outre","zipcode":"67000","city":"STRASBOURG","address":"10 rue de L'Outre 67000 STRASBOURG","chef":"Franck Pelux","url":"https://restaurant.michelin.fr/kl196wcf/au-crocodile-strasbourg"},{"name":"Jin","road":"6 Rue de la Sourdière","zipcode":"75001","city":"Paris","address":"6 Rue de la Sourdière 75001 Paris","chef":"Taku","url":"https://restaurant.michelin.fr/1t2b08px/jin-paris-01"},{"name":"Le Saint-Martin","road":"Avenue des Templiers","zipcode":"06140","city":"Vence","address":"Avenue des Templiers 06140 Vence","chef":"Jean-Luc Lefrançois","url":"https://restaurant.michelin.fr/2d1gnwo/le-saint-martin-vence"},{"name":"La Table de l'Alpaga","road":"66 Allée des Marmousets","zipcode":"74120","city":"Megève","address":"66 Allée des Marmousets 74120 Megève","chef":"Anthony Bisquerra","url":"https://restaurant.michelin.fr/9tlmhvt/la-table-de-lalpaga-megeve"},{"name":"Maximilien","road":"19a rte Ostheim","zipcode":"68340","city":"Zellenberg","address":"19a rte Ostheim 68340 Zellenberg","chef":"Jean-Michel Eblin","url":"https://restaurant.michelin.fr/2aoyre2/maximilien-zellenberg"},{"name":"Le Grand Cap","road":"chemin du Phare","zipcode":"11370","city":"Leucate","address":"chemin du Phare 11370 Leucate","chef":"Erwan Houssin","url":"https://restaurant.michelin.fr/2851511/le-grand-cap-leucate"},{"name":"Jean Chauvel","road":"33 av. Général-Leclerc","zipcode":"92100","city":"Boulogne-Billancourt","address":"33 av. Général-Leclerc 92100 Boulogne-Billancourt","chef":"","url":"https://restaurant.michelin.fr/3614956/jean-chauvel-boulogne-billancourt"},{"name":"Le Champ des Lunes","road":"route de Roquefraîche","zipcode":"84360","city":"Lauris","address":"route de Roquefraîche 84360 Lauris","chef":"Jérôme FAURE","url":"https://restaurant.michelin.fr/ua2fx9zg/le-champ-des-lunes-lauris"},{"name":"La Pyramide-Patrick Henriroux","road":"14 Boulevard Fernand Point","zipcode":"38200","city":"Vienne","address":"14 Boulevard Fernand Point 38200 Vienne","chef":"Patrick Henriroux","url":"https://restaurant.michelin.fr/2f4bg71/la-pyramide-patrick-henriroux-vienne"},{"name":"Les Bories","road":"rte de l'Abbaye de Sénanque","zipcode":"84220","city":"Gordes","address":"rte de l'Abbaye de Sénanque 84220 Gordes","chef":"MIRER Gregory","url":"https://restaurant.michelin.fr/2byq8tg/les-bories-gordes"},{"name":"Auberge de la Charme","road":"12 r. de la Charme","zipcode":"21370","city":"Prenois","address":"12 r. de la Charme 21370 Prenois","chef":"Nicolas Isnard et David Le Comte","url":"https://restaurant.michelin.fr/29dyqga/auberge-de-la-charme-prenois"},{"name":"L'Auberge de Bagatelle","road":"489 av. Bollée","zipcode":"72000","city":"Le Mans","address":"489 av. Bollée 72000 Le Mans","chef":"Jean-Sébastien Monné","url":"https://restaurant.michelin.fr/3616226/lauberge-de-bagatelle-le-mans"},{"name":"Toya","road":"av. Jean-Monnet","zipcode":"57380","city":"Faulquemont","address":"av. Jean-Monnet 57380 Faulquemont","chef":"Loïc Villemin","url":"https://restaurant.michelin.fr/3vxe9bf/toya-faulquemont"},{"name":"Jérôme Feck","road":"19 pl. Mgr-Tissier","zipcode":"51000","city":"Châlons-en-Champagne","address":"19 pl. Mgr-Tissier 51000 Châlons-en-Champagne","chef":"","url":"https://restaurant.michelin.fr/294k5c0/jerome-feck-chalons-en-champagne"},{"name":"114, Faubourg","road":"114 r. Fg St-Honoré","zipcode":"75008","city":"Paris 08","address":"114 r. Fg St-Honoré 75008 Paris 08","chef":"Loïc Dantec","url":"https://restaurant.michelin.fr/2f3fs2n/114-faubourg-paris-08"},{"name":"La Marine","road":"3 r. Marie-Lemonnier","zipcode":"85330","city":"L'Herbaudière","address":"3 r. Marie-Lemonnier 85330 L'Herbaudière","chef":"Alexandre Couillon","url":"https://restaurant.michelin.fr/29n79hz/la-marine-lherbaudiere"},{"name":"Pertinence","road":"29 r. de l'Exposition","zipcode":"75007","city":"Paris","address":"29 r. de l'Exposition 75007 Paris","chef":"Kwen Liew et Ryunosuke Naito","url":"https://restaurant.michelin.fr/5sermc3/pertinence-paris-07"},{"name":"Le Lido","road":"42 av. Napoléon-III","zipcode":"20110","city":"Propriano","address":"42 av. Napoléon-III 20110 Propriano","chef":"Romuald ROYER","url":"https://restaurant.michelin.fr/29ajku0/le-lido-propriano"},{"name":"Sushi B","road":"5 r. Rameau","zipcode":"75002","city":"Paris","address":"5 r. Rameau 75002 Paris","chef":"","url":"https://restaurant.michelin.fr/2852091/sushi-b-paris-02"},{"name":"Les Trois Rochers","road":"16 rue du Phare","zipcode":"29120","city":"Sainte-Marine","address":"16 rue du Phare 29120 Sainte-Marine","chef":"Fréderic Claquin","url":"https://restaurant.michelin.fr/2bi0j2j/les-trois-rochers-sainte-marine"},{"name":"Divellec","road":"18 r. Fabert","zipcode":"75007","city":"Paris","address":"18 r. Fabert 75007 Paris","chef":"","url":"https://restaurant.michelin.fr/2852181/divellec-paris-07"},{"name":"La Merise","road":"7 r. d'Eschbach","zipcode":"67580","city":"Laubach","address":"7 r. d'Eschbach 67580 Laubach","chef":"Cédric Deckert","url":"https://restaurant.michelin.fr/3614676/la-merise-laubach"},{"name":"Montée","road":"9 r. Léopold-Robert","zipcode":"75014","city":"Paris","address":"9 r. Léopold-Robert 75014 Paris","chef":"Takayuki Nameura","url":"https://restaurant.michelin.fr/3615586/montee-paris-14"},{"name":"Comice","road":"31 av. de Versailles","zipcode":"75016","city":"Paris","address":"31 av. de Versailles 75016 Paris","chef":"Noam Gedalof","url":"https://restaurant.michelin.fr/3616836/comice-paris-16"},{"name":"Palégrié","road":"Les Ritons","zipcode":"38250","city":"Corrençon-en-Vercors","address":"Les Ritons 38250 Corrençon-en-Vercors","chef":"","url":"https://restaurant.michelin.fr/2d2itah0/palegrie-correncon-en-vercors"},{"name":"Le Chateaubriand","road":"129 av. Parmentier","zipcode":"75011","city":"Paris","address":"129 av. Parmentier 75011 Paris","chef":"Inaki Aizpitarte","url":"https://restaurant.michelin.fr/2e6jtym/le-chateaubriand-paris-11"},{"name":"Pierre Reboul","road":"260 r. Guillaume-du-Vair","zipcode":"13546","city":"Aix-en-Provence","address":"260 r. Guillaume-du-Vair 13546 Aix-en-Provence","chef":"","url":"https://restaurant.michelin.fr/9pmxzh3/pierre-reboul-aix-en-provence"},{"name":"Ima","road":"20 bd de la Tour-d'Auvergne","zipcode":"35000","city":"Rennes","address":"20 bd de la Tour-d'Auvergne 35000 Rennes","chef":"Julien Lemarié","url":"https://restaurant.michelin.fr/3616751/ima-rennes"}]}